{"type": "FeatureCollection", "features": [{"type": "Feature", "properties": {"name": "과천시", "relation": 2409169}, "geometry": {"type": "Polygon", "coordinates": [[[126.9609252, 37.4258802], [126.962336, 37.4235233], [126.9625541, 37.4206479], [126.9635574, 37.4192968], [126.9670907, 37.4172528], [126.9705367, 37.4172181], [126.9706676, 37.4163867], [126.9730667, 37.4159016], [126.9738519, 37.4150008], [126.9743753, 37.4134417], [126.9752041, 37.4129913], [126.9752478, 37.4118826], [126.9758584, 37.411259], [126.975335, 37.41067], [126.9759021, 37.4098384], [126.9758803, 37.409336], [126.9754659, 37.4091281], [126.9757058, 37.408002], [126.9761856, 37.4074476], [126.9756621, 37.4065814], [126.9759675, 37.4056805], [126.9763165, 37.406027], [126.9774942, 37.405923], [126.9783884, 37.4054033], [126.9778432, 37.4040865], [126.9781703, 37.4034108], [126.9788247, 37.4030124], [126.9803732, 37.4030124], [126.9809621, 37.4026658], [126.9810929, 37.4018862], [126.982009, 37.4018515], [126.9824594, 37.4006016], [126.9835063, 37.402057], [126.9846342, 37.4027], [126.9851277, 37.4062283], [126.9879654, 37.4078943], [126.988644, 37.4077473], [126.9897544, 37.4081394], [126.9919752, 37.4076983], [126.994196, 37.4050032], [126.9996247, 37.4045622], [127.0019688, 37.4068653], [127.0044364, 37.4075023], [127.007089, 37.4086784], [127.0073358, 37.4101974], [127.0091865, 37.4121084], [127.0119625, 37.4119124], [127.0135664, 37.4129903], [127.0133196, 37.4137253], [127.0174528, 37.4132353], [127.0212158, 37.4123043], [127.0234983, 37.4125003], [127.0275081, 37.4117164], [127.0297906, 37.4127453], [127.0325666, 37.4128433], [127.0349108, 37.4138723], [127.0383037, 37.4137253], [127.040216, 37.4145093], [127.0421565, 37.415619], [127.0430202, 37.4196366], [127.0441111, 37.4220745], [127.0426567, 37.4238261], [127.042465, 37.4279651], [127.046228, 37.4290428], [127.0475326, 37.4305872], [127.0470605, 37.4322059], [127.0465455, 37.4325978], [127.0462451, 37.4335179], [127.045022, 37.434012], [127.0443354, 37.4346424], [127.043799, 37.4357669], [127.0425759, 37.4366018], [127.0413313, 37.4379989], [127.0407734, 37.4383737], [127.0377908, 37.4384759], [127.0359531, 37.4390526], [127.0352588, 37.4405375], [127.03719, 37.4427182], [127.0377908, 37.4436722], [127.0379196, 37.4446944], [127.0378337, 37.4455803], [127.0371042, 37.4460232], [127.0369754, 37.4471135], [127.0371471, 37.448306], [127.0376191, 37.4490214], [127.0368038, 37.4505546], [127.0366321, 37.4516448], [127.0356429, 37.4531932], [127.0358038, 37.4539666], [127.0371578, 37.4545866], [127.0372329, 37.4559714], [127.0358553, 37.4576577], [127.0350829, 37.4579643], [127.0349904, 37.4596904], [127.0347753, 37.4601337], [127.0340449, 37.4601952], [127.0338142, 37.4613279], [127.0347182, 37.4641072], [127.0316207, 37.4656641], [127.0295902, 37.4653453], [127.0297184, 37.4638737], [127.0280415, 37.4612545], [127.028489, 37.4601253], [127.0266219, 37.4596649], [127.0262992, 37.4579937], [127.0252787, 37.4574521], [127.0229071, 37.4573375], [127.0222011, 37.4565365], [127.02068, 37.4563164], [127.0197466, 37.4558403], [127.0177172, 37.4561854], [127.0162686, 37.4551981], [127.0145576, 37.4548221], [127.0131322, 37.4554255], [127.010965, 37.4554008], [127.0086513, 37.4583561], [127.0069776, 37.4592759], [127.0050893, 37.4620351], [127.0051322, 37.4628867], [127.0043168, 37.4644537], [127.0041452, 37.4660206], [127.0031152, 37.4673149], [127.0025573, 37.4670084], [127.0015273, 37.4670084], [127.0010553, 37.467349], [127.0002828, 37.4670765], [126.9977508, 37.4676896], [126.9965921, 37.4668721], [126.9963775, 37.4659184], [126.9965062, 37.4648965], [126.99715, 37.4640449], [126.9971071, 37.4630911], [126.9965492, 37.4622055], [126.9932018, 37.4614901], [126.992086, 37.4605022], [126.991056, 37.4607407], [126.9897685, 37.4594121], [126.9892106, 37.4582539], [126.9882129, 37.457794], [126.9846616, 37.456772], [126.982332, 37.4566091], [126.9824193, 37.4549665], [126.9809709, 37.4531438], [126.9795976, 37.452224], [126.978868, 37.4521218], [126.9786105, 37.4514745], [126.9777952, 37.4511678], [126.9777093, 37.4507931], [126.9761644, 37.4506568], [126.9759927, 37.4500095], [126.9744907, 37.448306], [126.9744907, 37.4476586], [126.9741474, 37.4475223], [126.9728599, 37.4479993], [126.9721732, 37.4475905], [126.9708429, 37.4475564], [126.9704995, 37.4471475], [126.9698558, 37.4472498], [126.9695983, 37.446875], [126.9684611, 37.4470624], [126.9672809, 37.4462617], [126.9657789, 37.4464321], [126.964706, 37.4458528], [126.9639764, 37.4449159], [126.9639764, 37.4436552], [126.9647167, 37.4421389], [126.9638262, 37.4415171], [126.9636653, 37.4409975], [126.9651317, 37.440613], [126.9654629, 37.439333], [126.9640334, 37.4376892], [126.9632582, 37.4348181], [126.9640803, 37.4313868], [126.9624591, 37.4310089], [126.9616817, 37.4267103], [126.9609252, 37.4258802]]]}}, {"type": "Feature", "properties": {"name": "하남시", "relation": 2409172}, "geometry": {"type": "Polygon", "coordinates": [[[127.139952, 37.5085171], [127.1403294, 37.5082754], [127.1403479, 37.5077359], [127.1415158, 37.506711], [127.1408056, 37.5059843], [127.1411768, 37.5054119], [127.1435671, 37.5044914], [127.1442465, 37.5045656], [127.1455303, 37.5033073], [127.1477163, 37.5032338], [127.1502631, 37.5046783], [127.1521336, 37.5029854], [127.1528308, 37.5030698], [127.1532462, 37.5027004], [127.1565033, 37.5019058], [127.1576598, 37.503169], [127.1588362, 37.5023794], [127.1593765, 37.501383], [127.1604636, 37.5011252], [127.1615088, 37.4999591], [127.1605936, 37.4983691], [127.160571, 37.4975605], [127.1597784, 37.4968223], [127.1600312, 37.4943902], [127.1597273, 37.4935786], [127.1586499, 37.4924261], [127.1582606, 37.4906365], [127.1572821, 37.4899505], [127.1585233, 37.489672], [127.1504085, 37.485235], [127.1491296, 37.4839418], [127.1486814, 37.4840498], [127.1477691, 37.482623], [127.1474643, 37.4816544], [127.1469758, 37.473881], [127.1546001, 37.4735216], [127.1544886, 37.4717682], [127.1585791, 37.4709958], [127.1630027, 37.4715382], [127.162734, 37.4708897], [127.1635211, 37.4709135], [127.1654831, 37.4702371], [127.1653905, 37.4699008], [127.1668603, 37.4696378], [127.1664614, 37.4691348], [127.1684322, 37.468751], [127.1706901, 37.4694572], [127.1722988, 37.4708898], [127.1754345, 37.4718181], [127.1776759, 37.4732765], [127.1789122, 37.4732668], [127.1787296, 37.4748116], [127.1775569, 37.4752238], [127.1766009, 37.476285], [127.1753898, 37.4767397], [127.1750664, 37.477721], [127.175587, 37.4782404], [127.1750417, 37.4798703], [127.1756626, 37.4800493], [127.176092, 37.4807053], [127.1755225, 37.4824495], [127.1761273, 37.4836387], [127.1757242, 37.4841376], [127.1757018, 37.485354], [127.1770769, 37.4853884], [127.1777034, 37.4872206], [127.1787761, 37.4871435], [127.1783997, 37.4853725], [127.1788281, 37.4849795], [127.1808461, 37.4842867], [127.1834269, 37.4837894], [127.1838955, 37.4839382], [127.1849876, 37.4817589], [127.1856572, 37.4811376], [127.1867987, 37.4807747], [127.1874314, 37.4810771], [127.1887016, 37.4803152], [127.1918042, 37.4806963], [127.1932284, 37.4814359], [127.1956931, 37.4806982], [127.1965626, 37.4798886], [127.1984347, 37.4796036], [127.1987679, 37.4799941], [127.1994621, 37.4799765], [127.2002576, 37.4807333], [127.2009183, 37.4822792], [127.200217, 37.4834415], [127.2017551, 37.483782], [127.2020844, 37.4836983], [127.2021081, 37.4829978], [127.2032406, 37.4828233], [127.2030963, 37.4817995], [127.203764, 37.4814295], [127.2041855, 37.4806867], [127.20528, 37.4804624], [127.2066809, 37.4803468], [127.2076783, 37.480985], [127.2097382, 37.4813456], [127.2107436, 37.4811593], [127.2155436, 37.4822808], [127.2160077, 37.4817951], [127.2178854, 37.4814735], [127.2193195, 37.4819972], [127.220412, 37.4814136], [127.2204346, 37.4809138], [127.2213192, 37.4799318], [127.2231937, 37.4794261], [127.2259904, 37.4798103], [127.2269964, 37.478305], [127.2283901, 37.4774724], [127.2340173, 37.4774087], [127.2351696, 37.4769234], [127.2378008, 37.476641], [127.2385572, 37.4761061], [127.2398463, 37.4765164], [127.2405783, 37.4762967], [127.2417528, 37.4767937], [127.2445831, 37.4765728], [127.2453911, 37.4777193], [127.2453493, 37.4785004], [127.2467639, 37.4793771], [127.2470207, 37.4804678], [127.2469511, 37.4809399], [127.2450093, 37.4817998], [127.2448735, 37.4841875], [127.2443284, 37.4847403], [127.2445284, 37.485313], [127.2461016, 37.4860149], [127.2485437, 37.4863213], [127.2492266, 37.4862931], [127.2504252, 37.4854827], [127.2537165, 37.4850416], [127.253981, 37.4853744], [127.2535155, 37.4861643], [127.2538725, 37.4867461], [127.2559511, 37.4885532], [127.2571968, 37.4885124], [127.2585691, 37.4898305], [127.2591922, 37.4909993], [127.2590749, 37.4922378], [127.2578948, 37.4938505], [127.2579811, 37.4946467], [127.2559975, 37.4958565], [127.25507, 37.4970021], [127.2546947, 37.5002459], [127.2532271, 37.5032486], [127.2542415, 37.5048422], [127.254372, 37.5062557], [127.2621675, 37.5073676], [127.2629323, 37.507007], [127.2683257, 37.506362], [127.2711552, 37.5077775], [127.2726494, 37.5075734], [127.2746263, 37.508411], [127.2761636, 37.5084404], [127.2778739, 37.5097327], [127.2775701, 37.5103527], [127.2779655, 37.5106774], [127.2779907, 37.51127], [127.2798574, 37.5123397], [127.2802952, 37.5133038], [127.2823925, 37.5135116], [127.2837162, 37.5145054], [127.2856231, 37.5145824], [127.2853638, 37.5180129], [127.2844489, 37.5216171], [127.281398, 37.5252238], [127.2740539, 37.5288277], [127.2644289, 37.5324333], [127.2587717, 37.536039], [127.2474574, 37.5414492], [127.2417997, 37.5432459], [127.2375615, 37.5468496], [127.2361389, 37.5504534], [127.235096, 37.5543624], [127.2322762, 37.5599091], [127.2304795, 37.5612644], [127.2287012, 37.5632511], [127.2220262, 37.5648668], [127.2222505, 37.564867], [127.220057, 37.5667716], [127.2197734, 37.5684702], [127.2198235, 37.573751], [127.2134955, 37.5767471], [127.207832, 37.5828835], [127.2050133, 37.5864853], [127.2021494, 37.5892014], [127.1964868, 37.5912585], [127.1830957, 37.5918889], [127.179524, 37.5878324], [127.1730232, 37.5828652], [127.1682104, 37.5799125], [127.1682114, 37.5789816], [127.1702593, 37.5790118], [127.1738711, 37.5797349], [127.1771299, 37.5812021], [127.1770398, 37.57953], [127.1754095, 37.5782924], [127.1756871, 37.5749002], [127.177832, 37.5720568], [127.1778393, 37.5714616], [127.1792159, 37.5689174], [127.1796651, 37.5652786], [127.1811856, 37.5630163], [127.1819992, 37.5609922], [127.1813362, 37.5530326], [127.1829116, 37.5518198], [127.1831101, 37.5506115], [127.1827124, 37.546449], [127.1837702, 37.5455456], [127.1835636, 37.5451679], [127.1821922, 37.545743], [127.1811943, 37.5466162], [127.1793088, 37.5466816], [127.1767928, 37.5457456], [127.1766835, 37.5453439], [127.1759793, 37.5456298], [127.175718, 37.5452104], [127.1743115, 37.5452969], [127.1741373, 37.5457114], [127.1721123, 37.5455292], [127.1697604, 37.5447962], [127.1670777, 37.5452149], [127.1667987, 37.5444792], [127.1663306, 37.5443038], [127.1631595, 37.5449999], [127.1598933, 37.5411651], [127.1576512, 37.5392702], [127.1569406, 37.5383711], [127.1567886, 37.5376586], [127.1560325, 37.5373427], [127.1545258, 37.5348693], [127.1540212, 37.534515], [127.1535371, 37.5336939], [127.1539333, 37.5319199], [127.1533787, 37.5313301], [127.153541, 37.5304365], [127.1531287, 37.5299482], [127.1531636, 37.5291091], [127.149455, 37.5257509], [127.149476, 37.5250206], [127.1477972, 37.52215], [127.1456663, 37.5219369], [127.1447856, 37.5196245], [127.1448553, 37.5177476], [127.1454334, 37.5160615], [127.1446078, 37.5155915], [127.1406172, 37.5155756], [127.1434345, 37.51389], [127.1435398, 37.5126573], [127.1413944, 37.5123634], [127.1412239, 37.5107848], [127.1403491, 37.5102168], [127.139952, 37.5085171]]]}}, {"type": "Feature", "properties": {"name": "구리시", "relation": 2409168}, "geometry": {"type": "Polygon", "coordinates": [[[127.1009579, 37.5734267], [127.1021209, 37.5724922], [127.1038375, 37.5718969], [127.1039834, 37.5711648], [127.1025672, 37.5661134], [127.1024814, 37.5647698], [127.1012369, 37.5609087], [127.1015802, 37.5601602], [127.1027925, 37.5591456], [127.1031616, 37.5571656], [127.104477, 37.5556364], [127.1053825, 37.5556534], [127.1063266, 37.556708], [127.1082535, 37.5574735], [127.1097804, 37.5598085], [127.1131233, 37.5602298], [127.1140889, 37.5586852], [127.113328, 37.5568959], [127.1151675, 37.5564788], [127.1156453, 37.5576997], [127.1173391, 37.5594635], [127.1229553, 37.5634898], [127.1286102, 37.5661604], [127.134267, 37.5679541], [127.1376656, 37.5684242], [127.1489496, 37.5684342], [127.1568992, 37.5729542], [127.162555, 37.5767301], [127.1667472, 37.5789757], [127.1682114, 37.5789816], [127.1682104, 37.5799125], [127.1714905, 37.5819285], [127.168816, 37.5839481], [127.1636611, 37.584434], [127.1624208, 37.5847069], [127.1609931, 37.5855471], [127.1605902, 37.58701], [127.16131, 37.5886983], [127.1630383, 37.5897399], [127.1654403, 37.5897262], [127.1679264, 37.5905745], [127.1692557, 37.592057], [127.1689613, 37.5933531], [127.1680434, 37.5942752], [127.1642066, 37.5942258], [127.1572491, 37.5956083], [127.1540212, 37.5970772], [127.1513167, 37.5995829], [127.1485468, 37.6058726], [127.1478635, 37.6098025], [127.1454182, 37.613407], [127.145523, 37.6140878], [127.1465461, 37.615632], [127.1464854, 37.6162833], [127.1459044, 37.6166255], [127.143465, 37.6204026], [127.1429633, 37.6254987], [127.1456024, 37.6298862], [127.1490921, 37.6335481], [127.1496373, 37.6389196], [127.1462349, 37.6440662], [127.1440975, 37.6444634], [127.1423745, 37.6457759], [127.1408259, 37.6460349], [127.1389721, 37.6455168], [127.137249, 37.6445152], [127.1340875, 37.6437825], [127.1308951, 37.6409249], [127.1291215, 37.6415111], [127.1275022, 37.6410959], [127.1255898, 37.6419385], [127.1215116, 37.6423675], [127.1204079, 37.6428177], [127.1164404, 37.6433747], [127.1155573, 37.6438074], [127.1137231, 37.6431845], [127.1130651, 37.6436349], [127.1118396, 37.6434294], [127.1118023, 37.6428422], [127.1110936, 37.6425651], [127.1117538, 37.6406358], [127.1123239, 37.6401862], [127.1119023, 37.6397974], [127.1110209, 37.6397147], [127.1105656, 37.6391298], [127.1124281, 37.6365711], [127.1121802, 37.6361187], [127.1124583, 37.6349103], [127.1118888, 37.6336607], [127.111691, 37.6317549], [127.1096268, 37.6298346], [127.1053096, 37.6270646], [127.1052178, 37.6251668], [127.103567, 37.6230696], [127.1037946, 37.621932], [127.1057335, 37.6208692], [127.1087785, 37.6204835], [127.1107748, 37.6210737], [127.1138325, 37.6197396], [127.1160276, 37.6193826], [127.1162358, 37.6185158], [127.1170082, 37.617734], [127.1168366, 37.6144366], [127.1174205, 37.6124988], [127.1168366, 37.6086912], [127.1180425, 37.6081303], [127.1183601, 37.6075854], [127.1179309, 37.6055965], [127.1182099, 37.6037606], [127.1156178, 37.6019424], [127.1141115, 37.6001055], [127.1139398, 37.5993235], [127.1148453, 37.5980663], [127.1160899, 37.5975052], [127.1160641, 37.5944101], [127.113, 37.5928127], [127.1102748, 37.5888851], [127.1094551, 37.5849232], [127.1084252, 37.5831888], [127.1076956, 37.5830868], [127.1068802, 37.5823726], [127.1041766, 37.5812162], [127.1025887, 37.5793117], [127.1028033, 37.5786995], [127.1019879, 37.5777812], [127.1019879, 37.5769649], [127.1010437, 37.5754003], [127.1009579, 37.5734267]]]}}, {"type": "Feature", "properties": {"name": "성남시", "relation": 2409180}, "geometry": {"type": "Polygon", "coordinates": [[[127.0270715, 37.3753813], [127.0278633, 37.3737297], [127.0276118, 37.3729961], [127.0277957, 37.3722864], [127.0375425, 37.3703254], [127.0386018, 37.3695935], [127.046179, 37.3683643], [127.0471183, 37.3666865], [127.0526417, 37.3638628], [127.0532898, 37.3631498], [127.0530063, 37.3608962], [127.0542167, 37.3601075], [127.0556235, 37.3599168], [127.05787, 37.3607229], [127.0606617, 37.3607229], [127.0636279, 37.3603155], [127.0706063, 37.357966], [127.073398, 37.3556949], [127.0758319, 37.3502536], [127.0776074, 37.3492454], [127.0787415, 37.3493667], [127.0829727, 37.3518461], [127.0847612, 37.3520541], [127.0866805, 37.3512912], [127.0874439, 37.3495921], [127.0892878, 37.3482269], [127.0927963, 37.3470739], [127.0932632, 37.3458074], [127.0947037, 37.3453932], [127.0978421, 37.3429014], [127.101861, 37.3430708], [127.1024323, 37.3419172], [127.1023204, 37.3404505], [127.1033383, 37.3395181], [127.1037627, 37.3385735], [127.1069382, 37.3370168], [127.1082913, 37.3358874], [127.1091171, 37.3357749], [127.1095502, 37.3349609], [127.1105024, 37.3344136], [127.11171, 37.3354851], [127.113315, 37.335745], [127.1145634, 37.3352687], [127.1167841, 37.3334438], [127.1174329, 37.3334244], [127.1177258, 37.3338935], [127.1201024, 37.3341986], [127.1213187, 37.3347608], [127.121922, 37.3362624], [127.1227679, 37.3370179], [127.1240821, 37.3366873], [127.124772, 37.3367953], [127.1254911, 37.3375107], [127.1275993, 37.337304], [127.1305678, 37.3375227], [127.1317077, 37.3385946], [127.1339593, 37.3386313], [127.1355837, 37.3395877], [127.13727, 37.3397302], [127.1378724, 37.3403585], [127.136378, 37.3414169], [127.1363592, 37.3433159], [127.1374445, 37.3445156], [127.1366249, 37.3448635], [127.1324795, 37.3490969], [127.1329597, 37.3513975], [127.1343255, 37.3517717], [127.1342397, 37.3540232], [127.1337461, 37.3549443], [127.1337139, 37.3558654], [127.1350068, 37.3583328], [127.1394819, 37.3599607], [127.1444321, 37.3593886], [127.1472815, 37.3608017], [127.150192, 37.3613539], [127.1506431, 37.3622283], [127.152854, 37.3635352], [127.154809, 37.367712], [127.1580748, 37.3700753], [127.1584433, 37.3713765], [127.1605211, 37.3727853], [127.1611256, 37.375761], [127.1609787, 37.3779504], [127.1616901, 37.3797136], [127.164781, 37.3800579], [127.1689109, 37.3814507], [127.1765563, 37.3855484], [127.1771897, 37.3865511], [127.1768119, 37.3872475], [127.1683919, 37.392495], [127.1683595, 37.3949051], [127.1708289, 37.3979112], [127.1716162, 37.4010095], [127.1742592, 37.4054269], [127.1750081, 37.4058538], [127.1771534, 37.4090167], [127.1778645, 37.4126522], [127.1777789, 37.4135129], [127.1769576, 37.4146475], [127.1790022, 37.4158238], [127.1802577, 37.4159026], [127.1829049, 37.4148969], [127.1848898, 37.415345], [127.1854318, 37.4162962], [127.1857263, 37.4186778], [127.1874933, 37.4191696], [127.1881409, 37.4201419], [127.1913729, 37.4220638], [127.1938263, 37.4240836], [127.194638, 37.4253935], [127.1933589, 37.426097], [127.194399, 37.4298708], [127.1952306, 37.4310312], [127.1938041, 37.4335356], [127.1936561, 37.4391631], [127.1942455, 37.440848], [127.1959614, 37.4438788], [127.1952255, 37.4452986], [127.1954269, 37.4488372], [127.1948031, 37.4491683], [127.1946275, 37.4497068], [127.1948515, 37.4511532], [127.1941696, 37.4519614], [127.1939352, 37.4528721], [127.1926534, 37.4544056], [127.1919488, 37.4551186], [127.1912889, 37.4552728], [127.191031, 37.4557564], [127.1915296, 37.4561516], [127.1916836, 37.4570214], [127.1898132, 37.4577961], [127.1893754, 37.4583488], [127.1874569, 37.4581324], [127.1847653, 37.4588138], [127.1839443, 37.4603009], [127.1846239, 37.4624979], [127.1832429, 37.4629229], [127.1815592, 37.464361], [127.181424, 37.4652026], [127.1819388, 37.4658275], [127.1821938, 37.4677809], [127.1817755, 37.4691134], [127.1820209, 37.4706321], [127.1813153, 37.4708758], [127.1809595, 37.4718106], [127.1809294, 37.4734235], [127.1804517, 37.4739689], [127.1787296, 37.4748116], [127.1789122, 37.4732668], [127.1776759, 37.4732765], [127.1754345, 37.4718181], [127.1722988, 37.4708898], [127.1706901, 37.4694572], [127.1684322, 37.468751], [127.1664614, 37.4691348], [127.1668603, 37.4696378], [127.1653905, 37.4699008], [127.1654831, 37.4702371], [127.1635211, 37.4709135], [127.162734, 37.4708897], [127.1630027, 37.4715382], [127.1585791, 37.4709958], [127.1544886, 37.4717682], [127.1546001, 37.4735216], [127.1374495, 37.4742523], [127.1326609, 37.4747766], [127.1325344, 37.4724501], [127.1328403, 37.4712261], [127.1319947, 37.4697676], [127.1330924, 37.4682834], [127.1304338, 37.467566], [127.1293255, 37.4677416], [127.1261857, 37.468737], [127.1246799, 37.4696984], [127.1252593, 37.4673056], [127.1228128, 37.4670123], [127.120089, 37.4639368], [127.1156198, 37.4626901], [127.1138353, 37.4610451], [127.10567, 37.4626727], [127.1039813, 37.462706], [127.1045334, 37.4612512], [127.1039579, 37.4600779], [127.1026011, 37.4598712], [127.1018468, 37.4593574], [127.101446, 37.4587815], [127.1016918, 37.4584242], [127.1003806, 37.4574965], [127.0983014, 37.4565506], [127.0945678, 37.4565847], [127.0929799, 37.4554604], [127.0928083, 37.4538593], [127.0917354, 37.4535526], [127.0907054, 37.4528031], [127.0902334, 37.4513722], [127.089418, 37.4508271], [127.0895038, 37.4503842], [127.0887742, 37.4500776], [127.0888172, 37.4494303], [127.0881734, 37.4489874], [127.0886455, 37.4480675], [127.0883022, 37.4461254], [127.0884738, 37.4451714], [127.086886, 37.4443877], [127.0858989, 37.444524], [127.0842252, 37.4439789], [127.0823369, 37.4411849], [127.0811353, 37.440776], [127.0798478, 37.4414234], [127.0765863, 37.4421049], [127.0755992, 37.4420367], [127.0749555, 37.4424797], [127.0733247, 37.4421389], [127.0725093, 37.4424115], [127.0716081, 37.4419345], [127.0719514, 37.4399241], [127.0738397, 37.4391745], [127.0740972, 37.4381182], [127.0740114, 37.4371981], [127.0713506, 37.4359714], [127.0709601, 37.4349661], [127.0714751, 37.4343528], [127.0705309, 37.4326489], [127.0711747, 37.4318992], [127.0709172, 37.4312858], [127.0710674, 37.4307226], [127.0706597, 37.4301774], [127.0688186, 37.4305701], [127.067102, 37.4302634], [127.0658789, 37.4291337], [127.0607934, 37.4302123], [127.0592914, 37.4296329], [127.0579181, 37.4299397], [127.0543561, 37.4292581], [127.0525108, 37.4285424], [127.0516096, 37.4287128], [127.0491205, 37.4303486], [127.0475326, 37.4305872], [127.046228, 37.4290428], [127.042465, 37.4279651], [127.0426567, 37.4238261], [127.0441111, 37.4220745], [127.0430202, 37.4196366], [127.0421565, 37.415619], [127.0468449, 37.4133651], [127.0465365, 37.4105722], [127.0423416, 37.4077302], [127.0427627, 37.4059658], [127.0437536, 37.4042574], [127.0375823, 37.4008442], [127.0381832, 37.3981765], [127.0381594, 37.3932661], [127.0386529, 37.3900313], [127.0339163, 37.388693], [127.0340216, 37.387788], [127.034558, 37.3869526], [127.0344473, 37.3860291], [127.0331063, 37.3856114], [127.0323694, 37.3831164], [127.0312858, 37.3820337], [127.0314467, 37.380286], [127.0307835, 37.3792177], [127.0286894, 37.3793397], [127.0274952, 37.3790003], [127.0272839, 37.3772168], [127.0275414, 37.3766456], [127.0270715, 37.3753813]]]}}, {"type": "Feature", "properties": {"name": "고양시", "relation": 2409166}, "geometry": {"type": "Polygon", "coordinates": [[[126.6703901, 37.6848009], [126.6711248, 37.6815498], [126.672728, 37.6779615], [126.675539, 37.6736307], [126.6780925, 37.6714907], [126.6920114, 37.6640971], [126.7247948, 37.6489299], [126.7313504, 37.648261], [126.731919, 37.6479722], [126.734687, 37.6463667], [126.7363071, 37.643028], [126.7402553, 37.6403519], [126.7417359, 37.6386018], [126.7460489, 37.6352203], [126.7517566, 37.6324674], [126.755147, 37.6318897], [126.7710075, 37.6237897], [126.789093, 37.6131096], [126.7969143, 37.6079081], [126.8020048, 37.6054126], [126.8113857, 37.5989452], [126.8175459, 37.5953534], [126.8193376, 37.5928116], [126.8278351, 37.5874857], [126.8319757, 37.5857064], [126.8371885, 37.5825715], [126.8391304, 37.580888], [126.8475848, 37.5761945], [126.8536318, 37.5717872], [126.8536285, 37.5737988], [126.8583508, 37.5747303], [126.8592642, 37.5755212], [126.8609283, 37.5750024], [126.8629585, 37.5772851], [126.8635111, 37.5775377], [126.8669312, 37.5771692], [126.8674605, 37.5775497], [126.8679327, 37.5774387], [126.8680449, 37.5777219], [126.8706528, 37.577876], [126.8758685, 37.5790945], [126.8773312, 37.5840474], [126.8766235, 37.5841642], [126.8765379, 37.58444], [126.8771932, 37.5849357], [126.8776774, 37.5860762], [126.8790963, 37.5867799], [126.8804007, 37.589626], [126.883594, 37.5919478], [126.8849258, 37.5937373], [126.8864363, 37.5944447], [126.8877932, 37.5942509], [126.8855586, 37.5911735], [126.8859307, 37.5898185], [126.8867954, 37.588619], [126.8900066, 37.588982], [126.8912522, 37.5885093], [126.8932692, 37.5892234], [126.8968945, 37.5886419], [126.8980317, 37.5895771], [126.89992, 37.5899342], [126.8995349, 37.5905497], [126.8996196, 37.5916684], [126.8989973, 37.5928416], [126.9005005, 37.5943752], [126.9018512, 37.5951709], [126.9011217, 37.5973981], [126.9015723, 37.5991662], [126.9001357, 37.6020597], [126.900479, 37.6027057], [126.9002, 37.6032327], [126.901745, 37.6034197], [126.9020229, 37.6038073], [126.9003278, 37.6111933], [126.9016796, 37.6139895], [126.9017235, 37.6148768], [126.9025164, 37.6157572], [126.9022171, 37.6164235], [126.9029681, 37.6174603], [126.9029681, 37.6182591], [126.9048767, 37.6192415], [126.9048553, 37.6202783], [126.9053284, 37.6204517], [126.9055419, 37.6211621], [126.9071952, 37.6218793], [126.9072596, 37.6227291], [126.9067446, 37.623069], [126.9066148, 37.6239154], [126.9063359, 37.6240683], [126.9076019, 37.6254279], [126.9088689, 37.6260431], [126.9086748, 37.6270764], [126.9091039, 37.6281811], [126.9088035, 37.6293027], [126.9083958, 37.6300504], [126.90728, 37.6303393], [126.9064442, 37.6319061], [126.9067651, 37.6327439], [126.9061428, 37.6332112], [126.9073884, 37.6334355], [126.9099418, 37.6353047], [126.9104783, 37.6352197], [126.9111531, 37.63593], [126.9106714, 37.6377006], [126.9101779, 37.6382104], [126.9123034, 37.6442648], [126.9077715, 37.646389], [126.9054738, 37.6489345], [126.9083583, 37.64726], [126.908696, 37.6474198], [126.9096759, 37.646962], [126.9122932, 37.6452116], [126.9137168, 37.6447404], [126.9153075, 37.6452058], [126.9227724, 37.6460908], [126.9292527, 37.6501344], [126.9306689, 37.6505761], [126.9333725, 37.6505591], [126.9353681, 37.6508989], [126.9370847, 37.652241], [126.9398957, 37.6564541], [126.9418054, 37.6575923], [126.9475552, 37.659207], [126.9479484, 37.6585453], [126.9477706, 37.6574161], [126.9493156, 37.6566749], [126.9497233, 37.6560974], [126.9515472, 37.6550101], [126.953414, 37.6550271], [126.9572098, 37.6528536], [126.9577806, 37.6501259], [126.9575848, 37.6490088], [126.9589286, 37.6470762], [126.9591646, 37.6422934], [126.9599851, 37.6414252], [126.9605487, 37.6394388], [126.9615894, 37.6380031], [126.9616216, 37.6371025], [126.962512, 37.6358706], [126.9633811, 37.6331517], [126.96204, 37.6322001], [126.9597869, 37.6297446], [126.9584834, 37.6293749], [126.961441, 37.6299184], [126.9637585, 37.6298249], [126.9650888, 37.6307341], [126.9675135, 37.6306322], [126.9729459, 37.632353], [126.9754618, 37.6314906], [126.9774895, 37.6336615], [126.9791847, 37.6338229], [126.9807833, 37.6347066], [126.9815745, 37.6347401], [126.9835728, 37.6364058], [126.9842487, 37.6363208], [126.9847744, 37.6366522], [126.9858795, 37.6401695], [126.9859438, 37.6407048], [126.9853752, 37.6417242], [126.984313, 37.6417157], [126.9838088, 37.642251], [126.9833839, 37.6436408], [126.9842165, 37.6444852], [126.9849062, 37.6462729], [126.9846733, 37.6476645], [126.9837882, 37.6483611], [126.9839912, 37.6495483], [126.9819023, 37.6514221], [126.9818669, 37.6520711], [126.9805365, 37.6532263], [126.9797093, 37.6554153], [126.9797104, 37.6561942], [126.9828968, 37.6564881], [126.9840341, 37.6587134], [126.9849782, 37.6592231], [126.986373, 37.6608028], [126.9871884, 37.6626204], [126.9885402, 37.663164], [126.988669, 37.6636566], [126.9896989, 37.6635886], [126.9908147, 37.664387], [126.9927245, 37.6648965], [126.994205, 37.6662894], [126.9939046, 37.6677161], [126.9942694, 37.6696015], [126.9938617, 37.6698732], [126.9941407, 37.6708414], [126.9937973, 37.6718095], [126.9940977, 37.6727266], [126.9935398, 37.6739155], [126.9942351, 37.6746543], [126.994087, 37.6750636], [126.9931965, 37.6759195], [126.9928103, 37.6782972], [126.9923382, 37.6788067], [126.9898335, 37.6796853], [126.9886727, 37.6813905], [126.9850958, 37.6827023], [126.9806465, 37.6856021], [126.9729524, 37.6860319], [126.9649946, 37.6920364], [126.9585172, 37.6914994], [126.9540756, 37.6928662], [126.9510528, 37.6881311], [126.9453774, 37.6859831], [126.9443287, 37.6830539], [126.9426014, 37.6804175], [126.9437735, 37.6770975], [126.9422313, 37.6721171], [126.940906, 37.6710321], [126.9382238, 37.6705906], [126.9366145, 37.6711935], [126.9348121, 37.6710916], [126.9337928, 37.6714737], [126.9322189, 37.6714548], [126.9304669, 37.6721786], [126.9301772, 37.6718644], [126.9292116, 37.6719663], [126.9274367, 37.6706862], [126.9235682, 37.6715672], [126.9203389, 37.6716776], [126.9199848, 37.6713803], [126.9203496, 37.6710831], [126.920135, 37.6695885], [126.9177193, 37.6694273], [126.9160188, 37.6702022], [126.9140303, 37.6694611], [126.9137728, 37.6688921], [126.9120455, 37.6691044], [126.9119152, 37.6687139], [126.9110262, 37.6686798], [126.9077016, 37.6703338], [126.9084835, 37.6718559], [126.9065272, 37.6729679], [126.9063163, 37.6740638], [126.9066059, 37.674862], [126.9062734, 37.6752442], [126.9053078, 37.6752612], [126.9068527, 37.6754565], [126.9080543, 37.6740383], [126.9089531, 37.6738064], [126.911561, 37.6747613], [126.9130003, 37.6760848], [126.9130549, 37.6783171], [126.9140663, 37.6794911], [126.9146097, 37.6814853], [126.9142878, 37.6817655], [126.9142341, 37.6851958], [126.9153081, 37.6881937], [126.9169271, 37.6897382], [126.916852, 37.6905277], [126.917721, 37.6910371], [126.9173348, 37.6915465], [126.9177854, 37.692438], [126.9187939, 37.6928794], [126.9191372, 37.6961054], [126.9203389, 37.696827], [126.921004, 37.6979816], [126.9209397, 37.6983806], [126.922313, 37.7002142], [126.9220877, 37.7013687], [126.9224417, 37.7017507], [126.9221628, 37.7025146], [126.9225168, 37.7044245], [126.9236335, 37.704913], [126.9233, 37.7063344], [126.9252741, 37.7086177], [126.9244587, 37.7093986], [126.924727, 37.7098909], [126.9245776, 37.7117881], [126.9206938, 37.713808], [126.9217443, 37.7140498], [126.9221413, 37.7151871], [126.9231284, 37.715569], [126.9237292, 37.7170457], [126.9237184, 37.7188025], [126.9249068, 37.7197772], [126.9246304, 37.7209326], [126.9239437, 37.7215182], [126.9237828, 37.7231306], [126.924094, 37.7236483], [126.9230524, 37.7247552], [126.9233537, 37.7286719], [126.9217694, 37.7291299], [126.921637, 37.7301993], [126.9220447, 37.7317776], [126.9232464, 37.7329146], [126.9255852, 37.7330843], [126.9266796, 37.7340856], [126.9266301, 37.7351889], [126.9273662, 37.7352565], [126.928482, 37.736105], [126.9306489, 37.7360666], [126.9304347, 37.7368007], [126.9310355, 37.737768], [126.9304776, 37.7399739], [126.9303671, 37.7440844], [126.9330044, 37.745929], [126.9291673, 37.7485126], [126.9256711, 37.7482033], [126.922946, 37.7470156], [126.9198131, 37.7469647], [126.9174956, 37.7481185], [126.9131926, 37.7476897], [126.9111442, 37.7466593], [126.9095134, 37.7469986], [126.9077968, 37.7440463], [126.9036769, 37.7415351], [126.9018745, 37.7389728], [126.9015956, 37.7377171], [126.9009621, 37.7372036], [126.9012093, 37.7356298], [126.9032478, 37.7329486], [126.9021749, 37.7316928], [126.9019174, 37.7300975], [126.9027538, 37.7287019], [126.8998468, 37.7270342], [126.8940425, 37.7269578], [126.8932593, 37.7258631], [126.8912446, 37.7255864], [126.8885439, 37.7229524], [126.8882704, 37.7234955], [126.887353, 37.7234871], [126.8864679, 37.7248321], [126.8859315, 37.7250909], [126.8850464, 37.7247897], [126.8845743, 37.7252564], [126.8835711, 37.7249551], [126.8822729, 37.7258122], [126.8807495, 37.7255916], [126.8797034, 37.726088], [126.8787976, 37.7258521], [126.8776488, 37.7261092], [126.8769246, 37.7254643], [126.8753421, 37.7252691], [126.8748271, 37.7258334], [126.873706, 37.7259098], [126.8730515, 37.726822], [126.8732071, 37.7281713], [126.8729174, 37.7294356], [126.8717909, 37.7301569], [126.8680401, 37.7284049], [126.867671, 37.7299278], [126.8663835, 37.7315231], [126.8590021, 37.7333559], [126.8586587, 37.7343062], [126.856277, 37.7354432], [126.8478176, 37.7335247], [126.8454838, 37.7321001], [126.8425788, 37.7318592], [126.8413922, 37.7312646], [126.8406756, 37.7305381], [126.8403988, 37.7296008], [126.8397857, 37.7293882], [126.8393739, 37.7286475], [126.8368184, 37.7274058], [126.834948, 37.7278107], [126.8339597, 37.7252432], [126.833607, 37.7253243], [126.8332261, 37.7272336], [126.8316435, 37.728952], [126.8289506, 37.7278573], [126.8284678, 37.7267117], [126.8265849, 37.7266608], [126.8262308, 37.7262153], [126.8251848, 37.7264274], [126.8250722, 37.7261644], [126.8239939, 37.7269833], [126.8238222, 37.7281246], [126.8229255, 37.7291807], [126.8214808, 37.7254418], [126.8194449, 37.7256255], [126.8163979, 37.7253879], [126.8143157, 37.7234358], [126.8137479, 37.72347], [126.8127716, 37.724115], [126.8110657, 37.7245818], [126.8101001, 37.7255152], [126.8101323, 37.7261686], [126.8082064, 37.72703], [126.8069888, 37.7268729], [126.8056261, 37.7275136], [126.8039954, 37.7272548], [126.8033945, 37.7286889], [126.8013883, 37.7294781], [126.8005242, 37.7307758], [126.8011093, 37.731574], [126.8010449, 37.7328637], [126.8013775, 37.733008], [126.8011308, 37.7345098], [126.7984594, 37.7370309], [126.7975581, 37.7361219], [126.7946101, 37.735292], [126.7939317, 37.7345692], [126.7957556, 37.7329655], [126.795026, 37.7325413], [126.7957127, 37.7303012], [126.7956535, 37.7295603], [126.7938566, 37.7261092], [126.792679, 37.7257355], [126.7925155, 37.7247345], [126.7906809, 37.7234701], [126.7894792, 37.7234786], [126.7873549, 37.7227148], [126.7870974, 37.7215776], [126.7857885, 37.7211872], [126.7843723, 37.7201773], [126.7845118, 37.7189638], [126.7835247, 37.7185649], [126.7822, 37.7187068], [126.7822909, 37.7179538], [126.7817759, 37.7172664], [126.7801559, 37.7177162], [126.7793298, 37.7172324], [126.778171, 37.7159764], [126.7785144, 37.7156199], [126.7773342, 37.7134302], [126.7758215, 37.7127512], [126.7744351, 37.7114123], [126.7748344, 37.7105359], [126.7738795, 37.7092543], [126.7735684, 37.7076246], [126.7736006, 37.7061731], [126.7742121, 37.705579], [126.7742121, 37.7048744], [126.7733998, 37.7038583], [126.7727101, 37.7046962], [126.767925, 37.7069243], [126.766085, 37.7072936], [126.766305, 37.7059142], [126.7650068, 37.7049381], [126.7651194, 37.7038346], [126.7641055, 37.704675], [126.763038, 37.7041275], [126.7605489, 37.7036478], [126.7597442, 37.7030494], [126.7577219, 37.7042633], [126.7567226, 37.7037362], [126.7562681, 37.7038219], [126.7557102, 37.7052936], [126.7542, 37.7047952], [126.7535958, 37.7050192], [126.7517065, 37.7043337], [126.7501957, 37.7030197], [126.7492461, 37.7030324], [126.7464781, 37.7040171], [126.7461669, 37.704815], [126.7453301, 37.7054007], [126.7439997, 37.7047641], [126.7425801, 37.7046213], [126.7412317, 37.7054771], [126.7412424, 37.7063259], [126.7402017, 37.7064787], [126.7394936, 37.705214], [126.7383014, 37.7043506], [126.7351699, 37.7046113], [126.7343867, 37.7051121], [126.7296338, 37.7050782], [126.7296767, 37.7044755], [126.7279306, 37.7043375], [126.7275873, 37.7036606], [126.7264849, 37.7032638], [126.7263428, 37.7045391], [126.7254952, 37.7046558], [126.7249927, 37.7045458], [126.7244518, 37.7038495], [126.723808, 37.7037497], [126.7235076, 37.7029242], [126.7227888, 37.7023491], [126.7209139, 37.7016466], [126.7183792, 37.7019756], [126.7179394, 37.7012519], [126.716324, 37.700119], [126.7149139, 37.7000465], [126.714077, 37.6995351], [126.71103, 37.6996879], [126.7048019, 37.6967719], [126.704126, 37.6968992], [126.7021948, 37.6963941], [126.700793, 37.6969241], [126.6982743, 37.6950853], [126.6981447, 37.6946877], [126.6964495, 37.6938642], [126.6957307, 37.694068], [126.6958272, 37.6934228], [126.6950226, 37.6932615], [126.6948616, 37.6922087], [126.6954946, 37.6918437], [126.6961706, 37.6919031], [126.696471, 37.6915041], [126.6948402, 37.6910711], [126.6947973, 37.6914871], [126.6938746, 37.691538], [126.6922438, 37.6904513], [126.6908491, 37.6887703], [126.6899576, 37.6886317], [126.6875809, 37.6917652], [126.6824176, 37.6963107], [126.6737151, 37.7003245], [126.6719234, 37.6929219], [126.6703901, 37.6848009]]]}}, {"type": "Feature", "properties": {"name": "광명시", "relation": 2409171}, "geometry": {"type": "Polygon", "coordinates": [[[126.8260792, 37.4593352], [126.8287304, 37.4594491], [126.8292725, 37.4584145], [126.8292239, 37.4577352], [126.8323057, 37.4589318], [126.8329869, 37.4601836], [126.8345828, 37.4597961], [126.8352265, 37.4587997], [126.8365782, 37.4577852], [126.8374473, 37.4585655], [126.8383029, 37.4581919], [126.8379455, 37.4580622], [126.8382748, 37.4573024], [126.8377102, 37.4572816], [126.8375331, 37.4563831], [126.8364146, 37.4560351], [126.8364025, 37.4557929], [126.8385315, 37.4553822], [126.8378872, 37.4539007], [126.8383861, 37.453215], [126.8379515, 37.4525273], [126.8390941, 37.4520546], [126.8386502, 37.4516511], [126.837391, 37.4516308], [126.838024, 37.4504321], [126.8395125, 37.4507046], [126.839357, 37.4497219], [126.8380642, 37.4496336], [126.8383646, 37.4486051], [126.8388044, 37.4489235], [126.8390887, 37.4486738], [126.838858, 37.4483219], [126.8395916, 37.4478534], [126.8396601, 37.4469932], [126.8384156, 37.447451], [126.8380454, 37.4433859], [126.8385148, 37.4427577], [126.8380049, 37.4422339], [126.8378304, 37.4406407], [126.8384411, 37.4398442], [126.8378304, 37.4385973], [126.8380921, 37.4368655], [126.8390518, 37.4367616], [126.8408839, 37.4357572], [126.8418871, 37.4337482], [126.8407966, 37.4332287], [126.8402296, 37.4314275], [126.8417563, 37.4296263], [126.8417999, 37.4264394], [126.8443299, 37.4244648], [126.8455077, 37.4228367], [126.8447225, 37.421451], [126.8448534, 37.4191298], [126.8459875, 37.4181944], [126.8455077, 37.4169472], [126.846162, 37.412859], [126.847078, 37.4114385], [126.8491718, 37.4105723], [126.8529711, 37.4083058], [126.8550976, 37.4034487], [126.8566793, 37.4028834], [126.8576184, 37.4021334], [126.8620452, 37.4015061], [126.8706536, 37.4021377], [126.8731196, 37.4018058], [126.8773094, 37.4020073], [126.877884, 37.4053594], [126.8766932, 37.4058197], [126.8758966, 37.406757], [126.872955, 37.4065226], [126.8704411, 37.4070425], [126.8700146, 37.408257], [126.8708273, 37.4096247], [126.8703579, 37.411018], [126.8713637, 37.4128267], [126.8731125, 37.4116039], [126.8752931, 37.4119831], [126.8764974, 37.4111736], [126.8770856, 37.4099869], [126.8783829, 37.4092647], [126.8791294, 37.4094457], [126.8806976, 37.4107027], [126.8831651, 37.4108007], [126.8852625, 37.4116827], [126.8876846, 37.4108476], [126.8890053, 37.4114398], [126.8892682, 37.4124923], [126.8879929, 37.4129674], [126.8907449, 37.4180417], [126.8891436, 37.4182185], [126.8903778, 37.4204182], [126.8938091, 37.420351], [126.8940854, 37.4225472], [126.8949286, 37.4236247], [126.8950265, 37.4243898], [126.8965477, 37.4254229], [126.8961747, 37.4263325], [126.89686, 37.4270832], [126.8964456, 37.428209], [126.8944229, 37.4284915], [126.8944229, 37.4293733], [126.8965204, 37.4312348], [126.897492, 37.4309531], [126.8980626, 37.4315165], [126.8991267, 37.4338188], [126.8990805, 37.4345168], [126.8997899, 37.4348597], [126.8993426, 37.4350311], [126.8996206, 37.4378438], [126.8987554, 37.4392766], [126.8992811, 37.4396439], [126.8999256, 37.4395564], [126.8972689, 37.4454368], [126.8957821, 37.4456334], [126.8946498, 37.4466981], [126.8950032, 37.4482225], [126.8955805, 37.4483343], [126.8960496, 37.448043], [126.8939827, 37.4527173], [126.8932542, 37.4527628], [126.8925879, 37.4519491], [126.8919635, 37.4523044], [126.8896419, 37.4523155], [126.8896525, 37.4535986], [126.8890212, 37.454167], [126.889203, 37.4547238], [126.8887639, 37.4547656], [126.8880164, 37.4555786], [126.8872412, 37.4555036], [126.8862644, 37.4563625], [126.8858689, 37.4575883], [126.8863369, 37.4589572], [126.8853762, 37.4594693], [126.8854434, 37.4601245], [126.8861278, 37.4608998], [126.8888752, 37.4609469], [126.8871215, 37.4629044], [126.885141, 37.462468], [126.8843168, 37.4627239], [126.8827453, 37.4643909], [126.8828732, 37.4649615], [126.8843445, 37.4654574], [126.8846173, 37.4660123], [126.8842494, 37.4665298], [126.8830138, 37.4670644], [126.8825295, 37.4679339], [126.8816309, 37.4684592], [126.8815927, 37.4694168], [126.8780111, 37.4738277], [126.8759854, 37.4771038], [126.8733787, 37.4824336], [126.8731922, 37.4822317], [126.8727815, 37.4824872], [126.872941, 37.4837096], [126.873325, 37.4841427], [126.8723496, 37.4844944], [126.8718436, 37.4852451], [126.8727879, 37.486269], [126.8738089, 37.4853447], [126.8745278, 37.4853174], [126.8752208, 37.4868547], [126.8760047, 37.4869478], [126.8767263, 37.4879357], [126.8768062, 37.48855], [126.8763538, 37.4889889], [126.8757935, 37.4890237], [126.8753119, 37.4885487], [126.8744633, 37.4888833], [126.8731566, 37.4882677], [126.8727672, 37.488418], [126.8724357, 37.4895477], [126.8735878, 37.4904779], [126.8739545, 37.4904138], [126.8741537, 37.4897402], [126.874659, 37.4898662], [126.8745176, 37.4911744], [126.8741491, 37.4913226], [126.8722913, 37.4906452], [126.8717316, 37.4908241], [126.8714308, 37.4906658], [126.8714056, 37.4898856], [126.8704029, 37.4895394], [126.8696925, 37.4905283], [126.8700072, 37.4908766], [126.869912, 37.4912958], [126.8693633, 37.4916532], [126.8693287, 37.4920977], [126.8700275, 37.4922833], [126.8694211, 37.4928881], [126.8700519, 37.4936184], [126.8683398, 37.4951597], [126.8668165, 37.4942857], [126.8672294, 37.4940039], [126.8675754, 37.4942787], [126.8678329, 37.494123], [126.8675244, 37.4931947], [126.8666945, 37.4929316], [126.8645845, 37.491197], [126.8618132, 37.4902513], [126.8576826, 37.48585], [126.8556795, 37.4855018], [126.8550465, 37.4850846], [126.8536593, 37.4825978], [126.8524502, 37.4817813], [126.8505801, 37.4815251], [126.848488, 37.4820785], [126.8475546, 37.4820274], [126.8461813, 37.4811334], [126.8452307, 37.4733458], [126.8448827, 37.4733853], [126.8450436, 37.4742538], [126.8431875, 37.4748073], [126.8409774, 37.4746796], [126.8383062, 37.475403], [126.8371365, 37.4748286], [126.8362294, 37.4748286], [126.8357304, 37.4743773], [126.8346522, 37.4744157], [126.8348561, 37.4757737], [126.8338805, 37.4768292], [126.8330518, 37.4772464], [126.8327707, 37.4770131], [126.8329029, 37.476676], [126.8322621, 37.476311], [126.8324617, 37.4740732], [126.8320058, 37.4728753], [126.832846, 37.4702386], [126.8335537, 37.4694101], [126.8332922, 37.4692965], [126.8335794, 37.4685742], [126.8335041, 37.4672544], [126.8330765, 37.466894], [126.8329955, 37.4658652], [126.8325267, 37.4657384], [126.8317741, 37.4663976], [126.8313247, 37.4663238], [126.8310002, 37.4657449], [126.8310809, 37.4648638], [126.8289381, 37.4641545], [126.8277971, 37.463242], [126.8267851, 37.4617364], [126.8260792, 37.4593352]]]}}, {"type": "Feature", "properties": {"name": "서울특별시", "relation": 2297418}, "geometry": {"type": "Polygon", "coordinates": [[[126.7644328, 37.5553162], [126.7650372, 37.5549065], [126.7660636, 37.5549165], [126.7663602, 37.5537683], [126.7675672, 37.5541789], [126.7672832, 37.5536811], [126.7676276, 37.5535185], [126.7673769, 37.5531373], [126.7677188, 37.5528369], [126.7674673, 37.5519664], [126.7702735, 37.5510877], [126.7698867, 37.5503391], [126.7714966, 37.5483714], [126.7725921, 37.5487571], [126.7753146, 37.5489647], [126.7767946, 37.548167], [126.7775707, 37.5467254], [126.7818261, 37.5460959], [126.7819971, 37.5463292], [126.7834201, 37.5460138], [126.7872811, 37.5460855], [126.7894045, 37.5443599], [126.7908703, 37.5436592], [126.7917263, 37.5436737], [126.7914905, 37.5423481], [126.7918287, 37.5417866], [126.7950852, 37.5413165], [126.7943555, 37.5401792], [126.7932224, 37.5396146], [126.7939019, 37.5394826], [126.7941785, 37.53818], [126.7938972, 37.5372582], [126.7945004, 37.535734], [126.7961166, 37.5366891], [126.7982888, 37.5371426], [126.7982069, 37.5376181], [126.7994423, 37.5377251], [126.7991567, 37.5388394], [126.7993981, 37.539001], [126.7987568, 37.5393952], [126.7988415, 37.540234], [126.8007874, 37.5408428], [126.8005514, 37.5414638], [126.7996985, 37.541366], [126.8016371, 37.5425195], [126.8041322, 37.5431881], [126.8072127, 37.5435358], [126.8127396, 37.540681], [126.8220543, 37.5406609], [126.8215906, 37.5397119], [126.8223218, 37.537924], [126.822434, 37.5365431], [126.821868, 37.534903], [126.8227029, 37.5337547], [126.8235528, 37.5337633], [126.8234307, 37.5326166], [126.8253126, 37.5299589], [126.8270698, 37.5297087], [126.828214, 37.5290293], [126.8279392, 37.5280032], [126.8284278, 37.5267028], [126.8288372, 37.5265085], [126.8265069, 37.5249323], [126.8251629, 37.5230551], [126.8256608, 37.5222351], [126.8256174, 37.52008], [126.8244962, 37.5177157], [126.8231046, 37.5162202], [126.8234013, 37.5149534], [126.8242557, 37.5144676], [126.8244081, 37.5131766], [126.8238567, 37.5108751], [126.8240602, 37.5104812], [126.8215439, 37.509954], [126.8215739, 37.5088016], [126.8225759, 37.5055558], [126.8218108, 37.504457], [126.82202, 37.5038528], [126.8216425, 37.5032237], [126.8216177, 37.5020993], [126.8197971, 37.5010916], [126.8195825, 37.4996786], [126.8190267, 37.4990011], [126.817868, 37.4987798], [126.817544, 37.4982827], [126.8163209, 37.4977379], [126.8143114, 37.4983201], [126.8140861, 37.4974051], [126.8130271, 37.4964314], [126.8142503, 37.4945288], [126.8145592, 37.4931714], [126.8155074, 37.4932985], [126.8159473, 37.4926941], [126.8178362, 37.4915591], [126.8185439, 37.4916218], [126.8226938, 37.4900035], [126.8230346, 37.4884102], [126.8235327, 37.4878406], [126.8221789, 37.486697], [126.8189946, 37.4857137], [126.8199709, 37.4815591], [126.8191552, 37.4794899], [126.8182543, 37.4781961], [126.8172522, 37.4781713], [126.8164033, 37.4775316], [126.8160978, 37.4767078], [126.8149691, 37.4759023], [126.814658, 37.4745842], [126.8155077, 37.4739958], [126.816602, 37.4739771], [126.8171031, 37.4732381], [126.8176693, 37.4731126], [126.8178852, 37.473657], [126.8186362, 37.474075], [126.8183229, 37.4752867], [126.8192842, 37.4751649], [126.8191126, 37.4761696], [126.8195042, 37.4763612], [126.8217068, 37.476225], [126.821773, 37.4752072], [126.8221754, 37.4757819], [126.8237045, 37.4761356], [126.8239255, 37.4764826], [126.8241943, 37.4761833], [126.8278394, 37.4759823], [126.829261, 37.4762548], [126.8302051, 37.4772424], [126.8313198, 37.4776128], [126.8332905, 37.4772634], [126.8338805, 37.4768292], [126.8348561, 37.4757737], [126.8346522, 37.4744157], [126.8357304, 37.4743773], [126.8362294, 37.4748286], [126.8371365, 37.4748286], [126.8383062, 37.475403], [126.8409774, 37.4746796], [126.8431875, 37.4748073], [126.8450436, 37.4742538], [126.8448827, 37.4733853], [126.8452307, 37.4733458], [126.8459882, 37.4803416], [126.8461813, 37.4811334], [126.8468358, 37.4817549], [126.848488, 37.4820785], [126.8505801, 37.4815251], [126.8524502, 37.4817813], [126.8536593, 37.4825978], [126.8550465, 37.4850846], [126.8556795, 37.4855018], [126.8576826, 37.48585], [126.8618132, 37.4902513], [126.8645845, 37.491197], [126.8666945, 37.4929316], [126.8675244, 37.4931947], [126.8678329, 37.494123], [126.8675754, 37.4942787], [126.8672294, 37.4940039], [126.8668165, 37.4942857], [126.8683398, 37.4951597], [126.8700519, 37.4936184], [126.8694211, 37.4928881], [126.8700275, 37.4922833], [126.8693287, 37.4920977], [126.8693633, 37.4916532], [126.869912, 37.4912958], [126.8700072, 37.4908766], [126.8696925, 37.4905283], [126.8702065, 37.490148], [126.8701487, 37.4897264], [126.8704029, 37.4895394], [126.8714056, 37.4898856], [126.8714308, 37.4906658], [126.8717316, 37.4908241], [126.8732124, 37.4907918], [126.8741491, 37.4913226], [126.8746706, 37.4908995], [126.8744598, 37.490274], [126.874659, 37.4898662], [126.8741537, 37.4897402], [126.8739545, 37.4904138], [126.8735878, 37.4904779], [126.8728703, 37.4900346], [126.8724039, 37.48933], [126.8727672, 37.488418], [126.8731566, 37.4882677], [126.8744633, 37.4888833], [126.8753119, 37.4885487], [126.8757935, 37.4890237], [126.8763538, 37.4889889], [126.8768062, 37.48855], [126.8767263, 37.4879357], [126.8760047, 37.4869478], [126.8750662, 37.4866608], [126.8750119, 37.4859868], [126.8745278, 37.4853174], [126.8738089, 37.4853447], [126.8727879, 37.486269], [126.8718436, 37.4852451], [126.8723496, 37.4844944], [126.873325, 37.4841427], [126.872941, 37.4837096], [126.8727815, 37.4824872], [126.8731922, 37.4822317], [126.8733787, 37.4824336], [126.8759854, 37.4771038], [126.8780111, 37.4738277], [126.8815927, 37.4694168], [126.8816309, 37.4684592], [126.8825295, 37.4679339], [126.8830138, 37.4670644], [126.8842494, 37.4665298], [126.8846173, 37.4660123], [126.8843445, 37.4654574], [126.8828732, 37.4649615], [126.8827453, 37.4643909], [126.8843168, 37.4627239], [126.885141, 37.462468], [126.8871215, 37.4629044], [126.8888752, 37.4609469], [126.8861278, 37.4608998], [126.8854434, 37.4601245], [126.8853762, 37.4594693], [126.8863369, 37.4589572], [126.8858689, 37.4575883], [126.8862644, 37.4563625], [126.8872412, 37.4555036], [126.8880164, 37.4555786], [126.8887639, 37.4547656], [126.889203, 37.4547238], [126.8890212, 37.454167], [126.8896525, 37.4535986], [126.8896419, 37.4523155], [126.8919635, 37.4523044], [126.8925879, 37.4519491], [126.8932542, 37.4527628], [126.8939827, 37.4527173], [126.8960496, 37.448043], [126.8955805, 37.4483343], [126.8950032, 37.4482225], [126.8946498, 37.4466981], [126.8957821, 37.4456334], [126.8972689, 37.4454368], [126.8999256, 37.4395564], [126.8992811, 37.4396439], [126.8988049, 37.4393501], [126.898978, 37.4387003], [126.9012781, 37.4366975], [126.9027594, 37.4358757], [126.9029742, 37.4340531], [126.9087658, 37.4336712], [126.9098816, 37.4354091], [126.9109116, 37.4360907], [126.9114051, 37.4377263], [126.9126926, 37.4389615], [126.9141088, 37.4400008], [126.9185505, 37.4402819], [126.9193874, 37.4408441], [126.9199667, 37.4413723], [126.9213186, 37.4442685], [126.9228421, 37.4455121], [126.9230996, 37.4463469], [126.9252453, 37.447369], [126.9260822, 37.4485956], [126.9265328, 37.4485956], [126.9290862, 37.4501969], [126.9303308, 37.4491577], [126.9308672, 37.4465343], [126.9316612, 37.4454099], [126.9343648, 37.444064], [126.937047, 37.44219], [126.9382916, 37.4405375], [126.9379697, 37.4383908], [126.9388709, 37.4353751], [126.9397722, 37.4360736], [126.9413171, 37.4360395], [126.9422183, 37.4374707], [126.9455872, 37.4376922], [126.9476686, 37.4389189], [126.9509087, 37.4388508], [126.9526897, 37.4395493], [126.955844, 37.4389871], [126.9584189, 37.4394812], [126.9594274, 37.440793], [126.9606934, 37.4406226], [126.9636653, 37.4409975], [126.9638262, 37.4415171], [126.9647167, 37.4421389], [126.9639764, 37.4436552], [126.9639764, 37.4449159], [126.964706, 37.4458528], [126.9657789, 37.4464321], [126.9672809, 37.4462617], [126.9684611, 37.4470624], [126.9695983, 37.446875], [126.9698558, 37.4472498], [126.9704995, 37.4471475], [126.9708429, 37.4475564], [126.9721732, 37.4475905], [126.9728599, 37.4479993], [126.9741474, 37.4475223], [126.9744907, 37.4476586], [126.9744907, 37.448306], [126.9759927, 37.4500095], [126.9761644, 37.4506568], [126.9777093, 37.4507931], [126.9777952, 37.4511678], [126.9786105, 37.4514745], [126.978868, 37.4521218], [126.9795976, 37.452224], [126.9809709, 37.4531438], [126.9824193, 37.4549665], [126.982332, 37.4566091], [126.9846616, 37.456772], [126.9882129, 37.457794], [126.9892106, 37.4582539], [126.9897685, 37.4594121], [126.991056, 37.4607407], [126.992086, 37.4605022], [126.9932018, 37.4614901], [126.9965492, 37.4622055], [126.9971071, 37.4630911], [126.99715, 37.4640449], [126.9965062, 37.4648965], [126.9963775, 37.4659184], [126.9965921, 37.4668721], [126.9977508, 37.4676896], [127.0002828, 37.4670765], [127.0010553, 37.467349], [127.0015273, 37.4670084], [127.0025573, 37.4670084], [127.0031152, 37.4673149], [127.0041452, 37.4660206], [127.0043168, 37.4644537], [127.0051322, 37.4628867], [127.0050893, 37.4620351], [127.0069776, 37.4592759], [127.0086513, 37.4583561], [127.010965, 37.4554008], [127.0131322, 37.4554255], [127.0145576, 37.4548221], [127.0162686, 37.4551981], [127.0177172, 37.4561854], [127.0197466, 37.4558403], [127.02068, 37.4563164], [127.0222011, 37.4565365], [127.0229071, 37.4573375], [127.0252787, 37.4574521], [127.0262992, 37.4579937], [127.0266219, 37.4596649], [127.028489, 37.4601253], [127.0280415, 37.4612545], [127.0297184, 37.4638737], [127.0295902, 37.4653453], [127.0316207, 37.4656641], [127.0347182, 37.4641072], [127.0338142, 37.4613279], [127.0340449, 37.4601952], [127.0347753, 37.4601337], [127.0349904, 37.4596904], [127.0350829, 37.4579643], [127.0358553, 37.4576577], [127.0372329, 37.4559714], [127.0371578, 37.4545866], [127.0358038, 37.4539666], [127.0356429, 37.4531932], [127.0366321, 37.4516448], [127.0368038, 37.4505546], [127.0376191, 37.4490214], [127.0371471, 37.448306], [127.0369754, 37.4471135], [127.0371042, 37.4460232], [127.0378337, 37.4455803], [127.0379196, 37.4446944], [127.0377908, 37.4436722], [127.03719, 37.4427182], [127.0352588, 37.4405375], [127.0359531, 37.4390526], [127.0377908, 37.4384759], [127.0407734, 37.4383737], [127.043799, 37.4357669], [127.0443354, 37.4346424], [127.045022, 37.434012], [127.0462451, 37.4335179], [127.0465455, 37.4325978], [127.0470605, 37.4322059], [127.0475326, 37.4305872], [127.0491205, 37.4303486], [127.0516096, 37.4287128], [127.0525108, 37.4285424], [127.0543561, 37.4292581], [127.0579181, 37.4299397], [127.0592914, 37.4296329], [127.0607934, 37.4302123], [127.0658789, 37.4291337], [127.067102, 37.4302634], [127.0688186, 37.4305701], [127.0706597, 37.4301774], [127.0710674, 37.4307226], [127.0709172, 37.4312858], [127.0711747, 37.4318992], [127.0705309, 37.4326489], [127.0714751, 37.4343528], [127.0709601, 37.4349661], [127.0713506, 37.4359714], [127.0740114, 37.4371981], [127.0740972, 37.4381182], [127.0738397, 37.4391745], [127.0719514, 37.4399241], [127.0716081, 37.4419345], [127.0725093, 37.4424115], [127.0733247, 37.4421389], [127.0749555, 37.4424797], [127.0755992, 37.4420367], [127.0765863, 37.4421049], [127.0798478, 37.4414234], [127.0811353, 37.440776], [127.0823369, 37.4411849], [127.0842252, 37.4439789], [127.0858989, 37.444524], [127.086886, 37.4443877], [127.0884738, 37.4451714], [127.0883022, 37.4461254], [127.0886455, 37.4480675], [127.0881734, 37.4489874], [127.0888172, 37.4494303], [127.0887742, 37.4500776], [127.0895038, 37.4503842], [127.089418, 37.4508271], [127.0902334, 37.4513722], [127.0907054, 37.4528031], [127.0917354, 37.4535526], [127.0928083, 37.4538593], [127.0929799, 37.4554604], [127.0945678, 37.4565847], [127.0983014, 37.4565506], [127.1003806, 37.4574965], [127.1016918, 37.4584242], [127.101446, 37.4587815], [127.1018468, 37.4593574], [127.1026011, 37.4598712], [127.1039579, 37.4600779], [127.1045334, 37.4612512], [127.1039813, 37.462706], [127.10567, 37.4626727], [127.1138353, 37.4610451], [127.1156198, 37.4626901], [127.120089, 37.4639368], [127.1228128, 37.4670123], [127.1252593, 37.4673056], [127.1246799, 37.4696984], [127.1261857, 37.468737], [127.1293255, 37.4677416], [127.1304338, 37.467566], [127.1330924, 37.4682834], [127.1319947, 37.4697676], [127.1328403, 37.4712261], [127.1325344, 37.4724501], [127.1326609, 37.4747766], [127.1353849, 37.4743746], [127.1469758, 37.473881], [127.1474643, 37.4816544], [127.1477691, 37.482623], [127.1486814, 37.4840498], [127.1491296, 37.4839418], [127.1504085, 37.485235], [127.1585233, 37.489672], [127.1572821, 37.4899505], [127.1582606, 37.4906365], [127.1586499, 37.4924261], [127.1597273, 37.4935786], [127.1600312, 37.4943902], [127.1597784, 37.4968223], [127.160571, 37.4975605], [127.1605936, 37.4983691], [127.1615088, 37.4999591], [127.1604636, 37.5011252], [127.1593765, 37.501383], [127.1588362, 37.5023794], [127.1576598, 37.503169], [127.1565033, 37.5019058], [127.1532462, 37.5027004], [127.1528308, 37.5030698], [127.1521336, 37.5029854], [127.1502631, 37.5046783], [127.1477163, 37.5032338], [127.1455303, 37.5033073], [127.1442465, 37.5045656], [127.1435671, 37.5044914], [127.1411768, 37.5054119], [127.1408056, 37.5059843], [127.1415158, 37.506711], [127.1403479, 37.5077359], [127.1403294, 37.5082754], [127.139952, 37.5085171], [127.1403491, 37.5102168], [127.1412239, 37.5107848], [127.1414354, 37.5124016], [127.1435398, 37.5126573], [127.1434345, 37.51389], [127.1406172, 37.5155756], [127.1446078, 37.5155915], [127.1454334, 37.5160615], [127.1448553, 37.5177476], [127.1447856, 37.5196245], [127.1456663, 37.5219369], [127.1477972, 37.52215], [127.149476, 37.5250206], [127.149455, 37.5257509], [127.1531636, 37.5291091], [127.1531287, 37.5299482], [127.153541, 37.5304365], [127.1533787, 37.5313301], [127.1539333, 37.5319199], [127.1535371, 37.5336939], [127.1540212, 37.534515], [127.1545258, 37.5348693], [127.1560325, 37.5373427], [127.1567886, 37.5376586], [127.1569406, 37.5383711], [127.1576512, 37.5392702], [127.1598933, 37.5411651], [127.1631595, 37.5449999], [127.1663306, 37.5443038], [127.1667987, 37.5444792], [127.1670777, 37.5452149], [127.1697604, 37.5447962], [127.1721123, 37.5455292], [127.1741373, 37.5457114], [127.1743115, 37.5452969], [127.175718, 37.5452104], [127.1759793, 37.5456298], [127.1766835, 37.5453439], [127.1767928, 37.5457456], [127.1793088, 37.5466816], [127.1811943, 37.5466162], [127.1821922, 37.545743], [127.1835636, 37.5451679], [127.1837702, 37.5455456], [127.1827124, 37.546449], [127.1831101, 37.5506115], [127.1829116, 37.5518198], [127.1813362, 37.5530326], [127.1819992, 37.5609922], [127.1811856, 37.5630163], [127.1796651, 37.5652786], [127.1792159, 37.5689174], [127.1778393, 37.5714616], [127.177832, 37.5720568], [127.1756871, 37.5749002], [127.1754095, 37.5782924], [127.1770398, 37.57953], [127.1771299, 37.5812021], [127.1738711, 37.5797349], [127.1702593, 37.5790118], [127.1667472, 37.5789757], [127.162555, 37.5767301], [127.1568992, 37.5729542], [127.1489496, 37.5684342], [127.1376656, 37.5684242], [127.134267, 37.5679541], [127.1286102, 37.5661604], [127.1229553, 37.5634898], [127.1173391, 37.5594635], [127.1156453, 37.5576997], [127.1151675, 37.5564788], [127.113328, 37.5568959], [127.1140889, 37.5586852], [127.1131233, 37.5602298], [127.1113038, 37.5601994], [127.1097804, 37.5598085], [127.1082535, 37.5574735], [127.1063266, 37.556708], [127.1053825, 37.5556534], [127.104477, 37.5556364], [127.1031616, 37.5571656], [127.1027925, 37.5591456], [127.1015802, 37.5601602], [127.1012369, 37.5609087], [127.1024814, 37.5647698], [127.1025672, 37.5661134], [127.1039834, 37.5711648], [127.1038375, 37.5718969], [127.1021209, 37.5724922], [127.1009579, 37.5734267], [127.1010437, 37.5754003], [127.1019879, 37.5769649], [127.1019879, 37.5777812], [127.1028033, 37.5786995], [127.1025887, 37.5793117], [127.1041766, 37.5812162], [127.1068802, 37.5823726], [127.1076956, 37.5830868], [127.1084252, 37.5831888], [127.1088586, 37.5837499], [127.1098414, 37.5862155], [127.1102748, 37.5888851], [127.113, 37.5928127], [127.1160641, 37.5944101], [127.1160899, 37.5975052], [127.1148453, 37.5980663], [127.1139398, 37.5993235], [127.1141115, 37.6001055], [127.1156178, 37.6019424], [127.118064, 37.6034384], [127.1179309, 37.6055965], [127.1183601, 37.6075854], [127.1180425, 37.6081303], [127.1168366, 37.6086912], [127.1174205, 37.6124988], [127.1168366, 37.6144366], [127.1170082, 37.617734], [127.1162358, 37.6185158], [127.1160276, 37.6193826], [127.1138325, 37.6197396], [127.1107748, 37.6210737], [127.1087785, 37.6204835], [127.1066687, 37.6206124], [127.1037946, 37.621932], [127.103567, 37.6230696], [127.1052178, 37.6251668], [127.1053096, 37.6270646], [127.1096268, 37.6298346], [127.111691, 37.6317549], [127.1118888, 37.6336607], [127.1124583, 37.6349103], [127.1121802, 37.6361187], [127.1124281, 37.6365711], [127.1105656, 37.6391298], [127.1110209, 37.6397147], [127.1119023, 37.6397974], [127.1123239, 37.6401862], [127.1117538, 37.6406358], [127.1110936, 37.6425651], [127.1100676, 37.6422974], [127.1089, 37.6440528], [127.1070991, 37.6449406], [127.1007433, 37.6458071], [127.0991984, 37.6451615], [127.092804, 37.6456372], [127.0920315, 37.6464867], [127.0923319, 37.6497148], [127.0943103, 37.6537411], [127.0928469, 37.655355], [127.0914736, 37.6578013], [127.0919028, 37.6604513], [127.094482, 37.6634579], [127.094821, 37.666906], [127.0955935, 37.6681289], [127.0955077, 37.6717297], [127.0948253, 37.6751434], [127.0936237, 37.6769776], [127.0917354, 37.678608], [127.0936029, 37.6825233], [127.0960226, 37.6848404], [127.0964518, 37.6864706], [127.096366, 37.6889158], [127.0946536, 37.6887969], [127.0931945, 37.6897478], [127.0903621, 37.6892724], [127.0888172, 37.6900195], [127.0855513, 37.6906138], [127.0852123, 37.6921929], [127.0840965, 37.6940267], [127.0810666, 37.6962169], [127.0765176, 37.6956906], [127.074698, 37.6950624], [127.0731282, 37.6938388], [127.0690942, 37.6938557], [127.0676985, 37.6947908], [127.0664334, 37.694433], [127.0634692, 37.6948722], [127.0629787, 37.6945689], [127.0624843, 37.6929562], [127.0614801, 37.6922948], [127.0596528, 37.6902221], [127.0584975, 37.689646], [127.0551161, 37.6892971], [127.0517637, 37.6872901], [127.0515088, 37.6859363], [127.0501848, 37.6878302], [127.0500576, 37.6910083], [127.0489703, 37.6928126], [127.0488074, 37.6936236], [127.0483621, 37.6939156], [127.047894, 37.6933294], [127.0460761, 37.6924498], [127.0449213, 37.6924223], [127.0447656, 37.6930441], [127.0430553, 37.693635], [127.0434952, 37.6941359], [127.0430887, 37.695239], [127.041049, 37.695282], [127.0400834, 37.6946877], [127.0399868, 37.6941274], [127.039032, 37.6939831], [127.0386062, 37.6932881], [127.0375333, 37.6932966], [127.0358992, 37.692404], [127.0324156, 37.6918533], [127.0322547, 37.6928551], [127.0310926, 37.6930662], [127.0299802, 37.696166], [127.0296798, 37.6984412], [127.0289073, 37.6999013], [127.0273195, 37.700886], [127.0247016, 37.6997315], [127.0216976, 37.700071], [127.0198093, 37.7011576], [127.015457, 37.7014794], [127.0157456, 37.7005524], [127.0145686, 37.698549], [127.0139678, 37.6985829], [127.0131524, 37.6981076], [127.0121225, 37.6981415], [127.0105131, 37.6973265], [127.0099767, 37.6966644], [127.0102986, 37.696189], [127.0093973, 37.6954929], [127.0089253, 37.6946099], [127.0090969, 37.6939478], [127.0082386, 37.692114], [127.0085605, 37.6914857], [127.0081528, 37.6889218], [127.0086463, 37.6885652], [127.0089845, 37.6873911], [127.0088343, 37.6850817], [127.0071949, 37.6847455], [127.004178, 37.6851496], [127.0035986, 37.6849289], [127.0031909, 37.6841138], [127.002161, 37.6837741], [127.0010237, 37.6843685], [126.9994144, 37.6839609], [126.9978265, 37.6849289], [126.997097, 37.6846062], [126.995831, 37.6854213], [126.9952087, 37.6849459], [126.9950585, 37.6842157], [126.9959168, 37.6837232], [126.9963889, 37.6828062], [126.9959597, 37.6818892], [126.9939261, 37.6802502], [126.9911902, 37.6792822], [126.9928103, 37.6782972], [126.9931965, 37.6759195], [126.9942351, 37.6746543], [126.9935398, 37.6739155], [126.9940977, 37.6727266], [126.9937973, 37.6718095], [126.9941407, 37.6708414], [126.9938617, 37.6698732], [126.9942694, 37.6696015], [126.9939046, 37.6677161], [126.994205, 37.6662894], [126.9927245, 37.6648965], [126.9908147, 37.664387], [126.9896989, 37.6635886], [126.988669, 37.6636566], [126.9885402, 37.663164], [126.9871884, 37.6626204], [126.986373, 37.6608028], [126.9849782, 37.6592231], [126.9840341, 37.6587134], [126.9828968, 37.6564881], [126.9797104, 37.6561942], [126.9796299, 37.6558256], [126.9805365, 37.6532263], [126.9818669, 37.6520711], [126.9819023, 37.6514221], [126.9839912, 37.6495483], [126.9837882, 37.6483611], [126.9846733, 37.6476645], [126.9849062, 37.6462729], [126.9842165, 37.6444852], [126.9833839, 37.6436408], [126.9838088, 37.642251], [126.984313, 37.6417157], [126.9853752, 37.6417242], [126.9859438, 37.6407048], [126.9849568, 37.6368816], [126.9842487, 37.6363208], [126.9835728, 37.6364058], [126.9815745, 37.6347401], [126.9807833, 37.6347066], [126.9791847, 37.6338229], [126.9774895, 37.6336615], [126.9754618, 37.6314906], [126.9729459, 37.632353], [126.9675135, 37.6306322], [126.9650888, 37.6307341], [126.9637585, 37.6298249], [126.961441, 37.6299184], [126.9584834, 37.6293749], [126.9597869, 37.6297446], [126.96204, 37.6322001], [126.9633811, 37.6331517], [126.962512, 37.6358706], [126.9616216, 37.6371025], [126.9615894, 37.6380031], [126.9605487, 37.6394388], [126.9599851, 37.6414252], [126.9591646, 37.6422934], [126.9589286, 37.6470762], [126.9575848, 37.6490088], [126.9577806, 37.6501259], [126.9572098, 37.6528536], [126.953414, 37.6550271], [126.9515472, 37.6550101], [126.9497233, 37.6560974], [126.9493156, 37.6566749], [126.9477706, 37.6574161], [126.9479484, 37.6585453], [126.9475552, 37.659207], [126.9418054, 37.6575923], [126.9398957, 37.6564541], [126.9370847, 37.652241], [126.9353681, 37.6508989], [126.9333725, 37.6505591], [126.9306689, 37.6505761], [126.9292527, 37.6501344], [126.9227724, 37.6460908], [126.9153075, 37.6452058], [126.9137168, 37.6447404], [126.9122932, 37.6452116], [126.9096759, 37.646962], [126.908696, 37.6474198], [126.9083583, 37.64726], [126.9054738, 37.6489345], [126.9077715, 37.646389], [126.9123034, 37.6442648], [126.9101779, 37.6382104], [126.9106714, 37.6377006], [126.9111531, 37.63593], [126.9104783, 37.6352197], [126.9099418, 37.6353047], [126.9073884, 37.6334355], [126.9061428, 37.6332112], [126.9067651, 37.6327439], [126.9064442, 37.6319061], [126.90728, 37.6303393], [126.9083958, 37.6300504], [126.9088035, 37.6293027], [126.9091039, 37.6281811], [126.9086748, 37.6270764], [126.9088689, 37.6260431], [126.9076019, 37.6254279], [126.9063359, 37.6240683], [126.9066148, 37.6239154], [126.9067446, 37.623069], [126.9072596, 37.6227291], [126.9071952, 37.6218793], [126.9055419, 37.6211621], [126.9053284, 37.6204517], [126.9048553, 37.6202783], [126.9048767, 37.6192415], [126.9029681, 37.6182591], [126.9029681, 37.6174603], [126.9022171, 37.6164235], [126.9025164, 37.6157572], [126.9017235, 37.6148768], [126.9016796, 37.6139895], [126.9003278, 37.6111933], [126.9020229, 37.6038073], [126.901745, 37.6034197], [126.9002, 37.6032327], [126.900479, 37.6027057], [126.9001357, 37.6020597], [126.9015723, 37.5991662], [126.9011217, 37.5973981], [126.9018512, 37.5951709], [126.9005005, 37.5943752], [126.8989973, 37.5928416], [126.8996196, 37.5916684], [126.8995349, 37.5905497], [126.89992, 37.5899342], [126.8980317, 37.5895771], [126.8968945, 37.5886419], [126.8932692, 37.5892234], [126.8912522, 37.5885093], [126.8900066, 37.588982], [126.8867954, 37.588619], [126.8859307, 37.5898185], [126.8855586, 37.5911735], [126.8877932, 37.5942509], [126.8864363, 37.5944447], [126.8849258, 37.5937373], [126.883594, 37.5919478], [126.8804007, 37.589626], [126.8790963, 37.5867799], [126.8776774, 37.5860762], [126.8771932, 37.5849357], [126.8765379, 37.58444], [126.8766235, 37.5841642], [126.8773312, 37.5840474], [126.8758685, 37.5790945], [126.8706528, 37.577876], [126.8680449, 37.5777219], [126.8679327, 37.5774387], [126.8674605, 37.5775497], [126.8669312, 37.5771692], [126.8635111, 37.5775377], [126.8629585, 37.5772851], [126.8609283, 37.5750024], [126.8592642, 37.5755212], [126.8583508, 37.5747303], [126.8536285, 37.5737988], [126.8536318, 37.5717872], [126.8475848, 37.5761945], [126.8391304, 37.580888], [126.8371885, 37.5825715], [126.8319757, 37.5857064], [126.8278351, 37.5874857], [126.8193376, 37.5928116], [126.8175459, 37.5953534], [126.8113857, 37.5989452], [126.8025933, 37.6050356], [126.7999505, 37.6025488], [126.7997574, 37.60192], [126.80009, 37.6014228], [126.7990279, 37.6011337], [126.7983412, 37.6000118], [126.7979603, 37.600237], [126.7974186, 37.5988387], [126.7973273, 37.5975423], [126.7969893, 37.5976528], [126.797338, 37.5950006], [126.7984055, 37.593683], [126.8001974, 37.592361], [126.8000793, 37.5920635], [126.7988615, 37.5923398], [126.798681, 37.5912828], [126.7999399, 37.5902697], [126.800349, 37.5902603], [126.8010465, 37.5892673], [126.8009323, 37.5888329], [126.8006966, 37.5888906], [126.8007922, 37.5881401], [126.8003261, 37.5877192], [126.7987382, 37.5881358], [126.7975387, 37.5865353], [126.7970698, 37.5853217], [126.7961339, 37.5848275], [126.7969515, 37.5841875], [126.7955294, 37.5830494], [126.7953586, 37.5851262], [126.7947846, 37.5851474], [126.79457, 37.582533], [126.794275, 37.582567], [126.7944145, 37.583515], [126.7939317, 37.5841951], [126.793315, 37.5844459], [126.7937708, 37.5821928], [126.7931193, 37.5801437], [126.7927293, 37.5801601], [126.7931327, 37.5784648], [126.7930937, 37.5768502], [126.7925382, 37.5767999], [126.7923385, 37.579353], [126.7912241, 37.5813259], [126.7912012, 37.5809175], [126.79059, 37.5805305], [126.7904827, 37.5777199], [126.7898816, 37.5772911], [126.789844, 37.5776014], [126.7892048, 37.5776341], [126.7883527, 37.5767299], [126.7890662, 37.5755479], [126.7878648, 37.5760959], [126.7874862, 37.5754986], [126.7821839, 37.5734768], [126.7817773, 37.5717064], [126.7813432, 37.5714722], [126.7825212, 37.5704756], [126.7811285, 37.5702137], [126.7804484, 37.5704552], [126.7803164, 37.5702494], [126.7815706, 37.5691388], [126.780349, 37.5683072], [126.7801147, 37.567506], [126.779088, 37.5683131], [126.7788362, 37.5681839], [126.778853, 37.5672025], [126.7775978, 37.5669728], [126.7768514, 37.5660876], [126.7764927, 37.5660586], [126.7763042, 37.5670273], [126.7752904, 37.5672697], [126.7754251, 37.5681931], [126.7746634, 37.5676276], [126.775291, 37.5652933], [126.7756687, 37.5653137], [126.7770244, 37.5636463], [126.7765244, 37.5623026], [126.7773986, 37.5622011], [126.7777829, 37.559826], [126.7756337, 37.5618736], [126.7754162, 37.5613373], [126.7745823, 37.5612911], [126.7747178, 37.5603558], [126.7740726, 37.5601046], [126.7741136, 37.5596202], [126.7735684, 37.5599898], [126.7731191, 37.559206], [126.7726886, 37.5593434], [126.7723507, 37.5585993], [126.7717749, 37.558557], [126.773132, 37.5574131], [126.7723131, 37.5568685], [126.7698133, 37.5571576], [126.7672759, 37.556558], [126.7664125, 37.5569746], [126.7661765, 37.556796], [126.7668039, 37.5563454], [126.7644328, 37.5553162]]]}}, {"type": "Feature", "properties": {"name": "김포시", "relation": 2409165}, "geometry": {"type": "Polygon", "coordinates": [[[126.5151715, 37.766168], [126.5162015, 37.7602648], [126.5281705, 37.7491356], [126.5278272, 37.7440454], [126.5255098, 37.7368507], [126.5185189, 37.7237492], [126.5176134, 37.7139046], [126.5227632, 37.7079972], [126.5285997, 37.7024289], [126.5272657, 37.6911691], [126.5238449, 37.6821312], [126.5222973, 37.6756126], [126.5229525, 37.6718679], [126.5239911, 37.6702465], [126.5252972, 37.6695316], [126.5326579, 37.6684391], [126.5339885, 37.6679014], [126.5351154, 37.6662085], [126.5356417, 37.6639448], [126.5358991, 37.659793], [126.535414, 37.6587461], [126.5346769, 37.6580914], [126.5304943, 37.6569108], [126.5283937, 37.6557819], [126.527793, 37.654446], [126.5279965, 37.653096], [126.5401475, 37.6327531], [126.5455913, 37.6261967], [126.5490841, 37.6180054], [126.5418771, 37.602596], [126.5451137, 37.5914702], [126.5516844, 37.5915083], [126.5534239, 37.5959695], [126.5697312, 37.584429], [126.5913785, 37.5931944], [126.6030192, 37.5986253], [126.6067464, 37.6012774], [126.6088605, 37.6042877], [126.611216, 37.6054593], [126.6139991, 37.6063433], [126.6156728, 37.6056973], [126.6157221, 37.6044734], [126.6164882, 37.6033514], [126.6187629, 37.6034736], [126.6187444, 37.6039346], [126.6191839, 37.60417], [126.6195924, 37.6040082], [126.6196605, 37.6035325], [126.6227603, 37.6028754], [126.6234982, 37.6034148], [126.6237705, 37.6032137], [126.6230897, 37.6023948], [126.6231701, 37.60213], [126.6236715, 37.6021202], [126.6239067, 37.6024536], [126.6253287, 37.6028754], [126.6255433, 37.6047114], [126.6276891, 37.6061053], [126.6278672, 37.6071593], [126.6293478, 37.6097924], [126.6292405, 37.6115449], [126.6311717, 37.6133127], [126.6320514, 37.6150575], [126.6324527, 37.6165082], [126.6314967, 37.6172169], [126.6328647, 37.6181993], [126.6332442, 37.6192909], [126.6341618, 37.6191486], [126.6361756, 37.6206689], [126.6364932, 37.6222529], [126.637961, 37.6237906], [126.6373772, 37.6249339], [126.6373901, 37.626545], [126.6367539, 37.6270396], [126.6372538, 37.6278238], [126.6387612, 37.6273174], [126.6400959, 37.6275349], [126.6407997, 37.6285002], [126.6425957, 37.6281467], [126.6435806, 37.6285563], [126.6452007, 37.6286566], [126.6468014, 37.6281263], [126.6504771, 37.6332992], [126.6503119, 37.6346587], [126.6512925, 37.6352364], [126.6516788, 37.6368337], [126.6511638, 37.6380231], [126.652472, 37.6390181], [126.6537451, 37.6381931], [126.655112, 37.6377853], [126.655848, 37.6380231], [126.6570561, 37.6378481], [126.6592319, 37.6386349], [126.6602189, 37.6379552], [126.660397, 37.6372075], [126.6613841, 37.6366638], [126.6656327, 37.636222], [126.6688449, 37.6348966], [126.6709971, 37.6345907], [126.6726193, 37.633945], [126.6752886, 37.6303424], [126.6760182, 37.6299345], [126.6793999, 37.6300705], [126.6802153, 37.6296286], [126.6809105, 37.6276063], [126.6816111, 37.6265025], [126.6824694, 37.6261966], [126.6824909, 37.6251769], [126.6828986, 37.6247351], [126.683683, 37.6253015], [126.6889282, 37.6219138], [126.6905804, 37.6222707], [126.6928335, 37.6206052], [126.6943999, 37.6200783], [126.6971036, 37.6180387], [126.6986485, 37.6174438], [126.7006001, 37.6148085], [126.7015099, 37.6140946], [126.7029605, 37.6135846], [126.7055354, 37.6117489], [126.7060933, 37.610219], [126.7060589, 37.6089951], [126.7056298, 37.6073633], [126.7045054, 37.6066493], [126.7037329, 37.6038614], [126.703999, 37.6027734], [126.7063089, 37.6035902], [126.7082905, 37.6049324], [126.7095705, 37.6051372], [126.7114448, 37.6051364], [126.7134082, 37.6029859], [126.7140154, 37.6029748], [126.7139908, 37.6039277], [126.7154681, 37.6039039], [126.7161687, 37.5996122], [126.7171021, 37.5988046], [126.7190977, 37.5979886], [126.7213781, 37.5964686], [126.7252882, 37.5920294], [126.7290725, 37.5928371], [126.7312787, 37.5918015], [126.7336098, 37.5915152], [126.7333978, 37.5913516], [126.7337757, 37.5909854], [126.7346568, 37.5911418], [126.7350146, 37.5906842], [126.7361988, 37.5904842], [126.7366838, 37.5909592], [126.736699, 37.592849], [126.7370071, 37.5932076], [126.739042, 37.593668], [126.739327, 37.5930295], [126.7385316, 37.5916041], [126.7416283, 37.5920974], [126.7419147, 37.5911274], [126.7445319, 37.5915439], [126.7451977, 37.5888019], [126.7461737, 37.588757], [126.7467565, 37.5871797], [126.7495295, 37.5844292], [126.7497682, 37.5837139], [126.7495247, 37.581062], [126.7511773, 37.580537], [126.7517268, 37.579557], [126.754389, 37.5804515], [126.7547309, 37.5801633], [126.7557636, 37.5805552], [126.75596, 37.5810913], [126.7555018, 37.5815178], [126.7555811, 37.5828858], [126.7559302, 37.5829411], [126.7559677, 37.583532], [126.7578964, 37.5852655], [126.7585051, 37.5850071], [126.7634062, 37.5851039], [126.7640515, 37.5859253], [126.7666554, 37.5872507], [126.767399, 37.5882714], [126.7726192, 37.5851077], [126.7751856, 37.5854065], [126.7767096, 37.5846268], [126.7800901, 37.5843959], [126.7806458, 37.58402], [126.7816897, 37.5839868], [126.7842003, 37.5825754], [126.7870745, 37.5855427], [126.7936261, 37.5816239], [126.7937547, 37.582924], [126.793315, 37.5844459], [126.7939317, 37.5841951], [126.7944145, 37.583515], [126.794275, 37.582567], [126.79457, 37.582533], [126.7947846, 37.5851474], [126.7953586, 37.5851262], [126.7955294, 37.5830494], [126.7969515, 37.5841875], [126.7961339, 37.5848275], [126.7970698, 37.5853217], [126.7975387, 37.5865353], [126.7987382, 37.5881358], [126.8006372, 37.5877957], [126.8006966, 37.5888906], [126.8009323, 37.5888329], [126.8010465, 37.5892673], [126.800349, 37.5902603], [126.7999399, 37.5902697], [126.798681, 37.5912828], [126.7988615, 37.5923398], [126.8000793, 37.5920635], [126.8001974, 37.592361], [126.7984055, 37.593683], [126.797338, 37.5950006], [126.7969893, 37.5976528], [126.7973273, 37.5975423], [126.7974186, 37.5988387], [126.7979603, 37.600237], [126.7983412, 37.6000118], [126.7990279, 37.6011337], [126.80009, 37.6014228], [126.7997574, 37.60192], [126.7999505, 37.6025488], [126.8025933, 37.6050356], [126.7969143, 37.6079081], [126.789093, 37.6131096], [126.7710075, 37.6237897], [126.755147, 37.6318897], [126.7517566, 37.6324674], [126.7460489, 37.6352203], [126.7417359, 37.6386018], [126.7402553, 37.6403519], [126.7363071, 37.643028], [126.734687, 37.6463667], [126.731919, 37.6479722], [126.7313504, 37.648261], [126.7247948, 37.6489299], [126.6920114, 37.6640971], [126.6780925, 37.6714907], [126.675539, 37.6736307], [126.672728, 37.6779615], [126.6711248, 37.6815498], [126.6703901, 37.6848009], [126.6719234, 37.6929219], [126.6737151, 37.7003245], [126.6740695, 37.70029], [126.6751957, 37.7105105], [126.6748309, 37.711546], [126.6782426, 37.7174022], [126.6801309, 37.7267542], [126.680302, 37.7316337], [126.6750658, 37.7530742], [126.6646883, 37.7693905], [126.6626179, 37.7807247], [126.6521667, 37.7809602], [126.6474714, 37.7828601], [126.6376009, 37.7837657], [126.6252412, 37.7821376], [126.616126, 37.7775145], [126.6086234, 37.7681097], [126.6034847, 37.7652942], [126.5912737, 37.7631222], [126.5816575, 37.7619558], [126.5779942, 37.761996], [126.575145, 37.7625993], [126.5709729, 37.7650931], [126.5632157, 37.7716766], [126.5497334, 37.7813108], [126.5290106, 37.7901819], [126.5199827, 37.7920214], [126.5202784, 37.7743775], [126.5151715, 37.766168]]]}}, {"type": "Feature", "properties": {"name": "부천시", "relation": 2409162}, "geometry": {"type": "Polygon", "coordinates": [[[126.7417001, 37.4951788], [126.7424944, 37.4887003], [126.7422885, 37.4868691], [126.7472223, 37.4853107], [126.7490208, 37.485092], [126.7500171, 37.4853959], [126.7542668, 37.4837127], [126.7555618, 37.482801], [126.7550746, 37.4810416], [126.7558158, 37.4807809], [126.7560338, 37.4798126], [126.7582043, 37.4787406], [126.7586285, 37.4774933], [126.7591881, 37.4768666], [126.7603018, 37.4763311], [126.7612889, 37.4765482], [126.7621418, 37.4760245], [126.7621439, 37.4756703], [126.7651105, 37.4751638], [126.7657735, 37.4742493], [126.7663237, 37.4742152], [126.7670385, 37.4736277], [126.7675877, 37.4727745], [126.76771, 37.4716693], [126.7713475, 37.4718013], [126.7719694, 37.4722866], [126.7728062, 37.4723632], [126.7745497, 37.4713925], [126.7761215, 37.4716309], [126.7771837, 37.4721929], [126.7776346, 37.4718439], [126.7804831, 37.4714607], [126.7843037, 37.4723932], [126.7843585, 37.4711817], [126.7851211, 37.4700174], [126.7878388, 37.4691743], [126.787955, 37.4667187], [126.7892884, 37.4655502], [126.792279, 37.465281], [126.7948533, 37.4656848], [126.7964641, 37.4639902], [126.7986068, 37.4645286], [126.8000734, 37.4641229], [126.8010011, 37.4637911], [126.8008679, 37.4629079], [126.8023718, 37.4626942], [126.803109, 37.4617314], [126.803799, 37.4615524], [126.8065555, 37.4621156], [126.8088952, 37.4621284], [126.8090078, 37.4615674], [126.8098213, 37.4612739], [126.8116219, 37.4596988], [126.8119516, 37.4586718], [126.8123156, 37.4591038], [126.8135237, 37.4585893], [126.8132816, 37.4601248], [126.814515, 37.4602839], [126.8155443, 37.4609677], [126.8165471, 37.4598472], [126.8178195, 37.4590405], [126.8199425, 37.4593764], [126.8209993, 37.4584362], [126.8233223, 37.4582405], [126.8239584, 37.4592326], [126.825284, 37.4591968], [126.8256004, 37.4588953], [126.8260792, 37.4593352], [126.8267851, 37.4617364], [126.8277971, 37.463242], [126.8289381, 37.4641545], [126.8310809, 37.4648638], [126.8310002, 37.4657449], [126.8313247, 37.4663238], [126.8317741, 37.4663976], [126.832319, 37.4658322], [126.8329184, 37.4657567], [126.8330765, 37.466894], [126.8335041, 37.4672544], [126.8335794, 37.4685742], [126.8332922, 37.4692965], [126.8335537, 37.4694101], [126.832846, 37.4702386], [126.8320058, 37.4728753], [126.8324617, 37.4740732], [126.8322621, 37.476311], [126.8329029, 37.476676], [126.8327707, 37.4770131], [126.8330518, 37.4772464], [126.8307416, 37.4774808], [126.829776, 37.4769529], [126.829261, 37.4762548], [126.8278394, 37.4759823], [126.8241943, 37.4761833], [126.8239255, 37.4764826], [126.8237045, 37.4761356], [126.8221754, 37.4757819], [126.821773, 37.4752072], [126.8217068, 37.476225], [126.8195042, 37.4763612], [126.8191126, 37.4761696], [126.8192842, 37.4751649], [126.8183229, 37.4752867], [126.8186362, 37.474075], [126.8178852, 37.473657], [126.8176693, 37.4731126], [126.8171031, 37.4732381], [126.816602, 37.4739771], [126.8155077, 37.4739958], [126.814658, 37.4745842], [126.8149691, 37.4759023], [126.8160978, 37.4767078], [126.8164033, 37.4775316], [126.8172522, 37.4781713], [126.8182543, 37.4781961], [126.8191552, 37.4794899], [126.8199709, 37.4815591], [126.8189946, 37.4857137], [126.8221789, 37.486697], [126.8235327, 37.4878406], [126.8230346, 37.4884102], [126.8226938, 37.4900035], [126.8185439, 37.4916218], [126.8178362, 37.4915591], [126.8159473, 37.4926941], [126.8155074, 37.4932985], [126.8145592, 37.4931714], [126.8142503, 37.4945288], [126.8130271, 37.4964314], [126.8140861, 37.4974051], [126.8143114, 37.4983201], [126.8163209, 37.4977379], [126.817544, 37.4982827], [126.817868, 37.4987798], [126.8190267, 37.4990011], [126.8195825, 37.4996786], [126.8197971, 37.5010916], [126.8216177, 37.5020993], [126.8216425, 37.5032237], [126.82202, 37.5038528], [126.8218108, 37.504457], [126.8225759, 37.5055558], [126.8215739, 37.5088016], [126.8215439, 37.509954], [126.8240602, 37.5104812], [126.8238567, 37.5108751], [126.8244081, 37.5131766], [126.8242557, 37.5144676], [126.8234013, 37.5149534], [126.8231046, 37.5162202], [126.8244962, 37.5177157], [126.8256174, 37.52008], [126.8256608, 37.5222351], [126.8251629, 37.5230551], [126.8265069, 37.5249323], [126.8288372, 37.5265085], [126.8284278, 37.5267028], [126.8279392, 37.5280032], [126.828214, 37.5290293], [126.8270698, 37.5297087], [126.8253126, 37.5299589], [126.8234307, 37.5326166], [126.8235528, 37.5337633], [126.8227029, 37.5337547], [126.821868, 37.534903], [126.822434, 37.5365431], [126.8223218, 37.537924], [126.8215906, 37.5397119], [126.8220543, 37.5406609], [126.8127396, 37.540681], [126.8072127, 37.5435358], [126.8041322, 37.5431881], [126.8016371, 37.5425195], [126.7996985, 37.541366], [126.8005514, 37.5414638], [126.8007874, 37.5408428], [126.7988415, 37.540234], [126.7987568, 37.5393952], [126.7993981, 37.539001], [126.7991567, 37.5388394], [126.7994423, 37.5377251], [126.7982069, 37.5376181], [126.7982888, 37.5371426], [126.7961166, 37.5366891], [126.7945004, 37.535734], [126.7938972, 37.5372582], [126.7941785, 37.53818], [126.7939019, 37.5394826], [126.7932224, 37.5396146], [126.7943555, 37.5401792], [126.7950852, 37.5413165], [126.7918287, 37.5417866], [126.7914905, 37.5423481], [126.7917263, 37.5436737], [126.7908703, 37.5436592], [126.7894045, 37.5443599], [126.7872811, 37.5460855], [126.7834201, 37.5460138], [126.7819971, 37.5463292], [126.7818261, 37.5460959], [126.7775707, 37.5467254], [126.7767946, 37.548167], [126.7753146, 37.5489647], [126.7725921, 37.5487571], [126.7714966, 37.5483714], [126.7698867, 37.5503391], [126.7702735, 37.5510877], [126.7674673, 37.5519664], [126.7677188, 37.5528369], [126.7673769, 37.5531373], [126.7676276, 37.5535185], [126.7672832, 37.5536811], [126.7675672, 37.5541789], [126.7663602, 37.5537683], [126.7662189, 37.5542443], [126.7658276, 37.554104], [126.7656852, 37.5538607], [126.7665664, 37.5533933], [126.7664985, 37.5531291], [126.7657771, 37.5526356], [126.7655627, 37.5518878], [126.7638163, 37.550848], [126.7652757, 37.5505211], [126.7656704, 37.5501598], [126.7655641, 37.5499302], [126.7637158, 37.5498429], [126.7645364, 37.5490587], [126.7639019, 37.5483865], [126.7640027, 37.547723], [126.7633979, 37.5467156], [126.7633386, 37.5452675], [126.7630145, 37.5446349], [126.7632341, 37.5440976], [126.762374, 37.5436495], [126.7638567, 37.5428719], [126.7624155, 37.5420326], [126.7615334, 37.5420081], [126.7626708, 37.5409827], [126.7616466, 37.5405714], [126.7622552, 37.5392983], [126.7605704, 37.5388479], [126.7618096, 37.5378185], [126.7615575, 37.537542], [126.7606665, 37.5377206], [126.7605007, 37.536738], [126.760946, 37.5363084], [126.760034, 37.5353555], [126.7604819, 37.534777], [126.7601788, 37.5330839], [126.7603612, 37.5313228], [126.7601251, 37.531076], [126.7604899, 37.5304549], [126.7602271, 37.5301699], [126.7601359, 37.5278173], [126.7603719, 37.5276046], [126.7603556, 37.5258597], [126.7600608, 37.5254008], [126.7604202, 37.5234693], [126.7602003, 37.5231544], [126.7605865, 37.5226524], [126.760629, 37.5196741], [126.7599428, 37.5192572], [126.7601895, 37.5190785], [126.7601516, 37.5174628], [126.7597711, 37.5171638], [126.7605272, 37.5168682], [126.7603379, 37.5159686], [126.7594339, 37.5155909], [126.758636, 37.5160295], [126.7569793, 37.5159089], [126.7569655, 37.5163724], [126.7561716, 37.5165861], [126.7548627, 37.516666], [126.7544932, 37.5163557], [126.7537415, 37.5168234], [126.7531451, 37.5167702], [126.7526793, 37.5160362], [126.7524219, 37.5165766], [126.7519283, 37.5165213], [126.751978, 37.5156596], [126.752437, 37.5153758], [126.7501956, 37.5147087], [126.7500722, 37.5139725], [126.7491227, 37.5144363], [126.7491389, 37.5146882], [126.746335, 37.5148908], [126.7456591, 37.5147205], [126.7450368, 37.5140908], [126.7436775, 37.5103641], [126.7417008, 37.5089369], [126.7439051, 37.5016551], [126.7417001, 37.4951788]]]}}, {"type": "Feature", "properties": {"name": "영종구", "relation": 13349474}, "geometry": {"type": "Polygon", "coordinates": [[[126.31685, 37.3968838], [126.3236035, 37.3727359], [126.3482057, 37.3458958], [126.3882446, 37.3321164], [126.533354, 37.331535], [126.5540027, 37.4401786], [126.5731103, 37.4690488], [126.5906436, 37.4878413], [126.5848715, 37.4944962], [126.5834331, 37.4984088], [126.5844792, 37.5012987], [126.5926235, 37.5022225], [126.5909897, 37.5098549], [126.5889601, 37.5239412], [126.5850082, 37.5348309], [126.5761558, 37.5457078], [126.5628667, 37.5509123], [126.5411781, 37.5488866], [126.5297254, 37.5618785], [126.4884805, 37.5683789], [126.4833176, 37.5246394], [126.4740761, 37.5125174], [126.4682363, 37.5077261], [126.4530244, 37.5062195], [126.4071327, 37.5064074], [126.3405518, 37.4849159], [126.3264979, 37.4666008], [126.3173324, 37.4463053], [126.31685, 37.3968838]]]}}, {"type": "Feature", "properties": {"name": "인천국제공항고속도로 회랑", "buffer_m": 500}, "geometry": {"type": "Polygon", "coordinates": [[[126.4794949207355, 37.473967936665744], [126.47953383890078, 37.47746230305692], [126.48010784534708, 37.48063272200658], [126.48096208385591, 37.48330335872862], [126.48231889077933, 37.48592263366605], [126.49478667696799, 37.503179999743125], [126.49815581126384, 37.506780268896414], [126.50136317778686, 37.50906001947222], [126.50492322740746, 37.51081422253904], [126.51934740493641, 37.51555911310282], [126.5303689179677, 37.520180109246226], [126.561506477014, 37.54376245457478], [126.56521728973763, 37.54578035509975], [126.5996466588282, 37.55662498334557], [126.60929959935994, 37.560175461351406], [126.61135900547805, 37.56057179218116], [126.61514384669405, 37.560689707127985], [126.6303200955931, 37.563821574104054], [126.63295069682678, 37.56499115728703], [126.6381396693976, 37.56834396259651], [126.64246764102872, 37.57064205881032], [126.64697258861648, 37.57237973117087], [126.65252825310462, 37.57379992431401], [126.66308418613785, 37.575222214413316], [126.66676159953496, 37.576024907015416], [126.68062332735003, 37.57545372617489], [126.73667335904084, 37.57802754636005], [126.74269059204036, 37.577781200588205], [126.75208895286514, 37.57616982329311], [126.75451132325432, 37.576196095917176], [126.75627781627836, 37.576684342261885], [126.75755243049004, 37.57743492465968], [126.76092282337294, 37.58075491985514], [126.76290600001218, 37.582232128703446], [126.76759273238105, 37.584467216771785], [126.79810516837284, 37.59116714046044], [126.80210635796956, 37.591756814973074], [126.80641563168444, 37.59171465827271], [126.80965028000105, 37.59131045173602], [126.81692919753625, 37.589371005132094], [126.81881373034851, 37.58953288223219], [126.82636744123995, 37.59526647230953], [126.82987962436957, 37.60071006296308], [126.8310998228186, 37.601837646806246], [126.83259480024407, 37.60256247235473], [126.83479096995109, 37.60280021834477], [126.83677163686538, 37.60226050300708], [126.83855305045884, 37.600954267903106], [126.8396989874837, 37.59906574655749], [126.84003498941588, 37.59688244922562], [126.83971972505026, 37.595251211058404], [126.83540618743665, 37.58816625571514], [126.83327721538365, 37.58610325463181], [126.82629032340643, 37.580703164256285], [126.82378360822658, 37.579242128684406], [126.82093282914627, 37.57829572068008], [126.81852681611466, 37.57794942739938], [126.81553294073707, 37.57802805218835], [126.80873378877962, 37.57965320000236], [126.80515697133876, 37.580050773742464], [126.7990261952955, 37.57965873071188], [126.77116869935394, 37.57358075980656], [126.76875221268367, 37.57235495681135], [126.76518992988787, 37.56885077545527], [126.76264520321355, 37.56707206249624], [126.75878827164996, 37.565446673631676], [126.75502346029594, 37.56472451968022], [126.75104959537546, 37.56474861269915], [126.7427629223772, 37.56620643585434], [126.73712508434706, 37.56655222537429], [126.68121418344595, 37.563985973499214], [126.67257423598097, 37.56415797038684], [126.66758812241655, 37.563581466754506], [126.66381659844373, 37.5637413878872], [126.65628640665534, 37.56280524608831], [126.6519161678056, 37.56186825317623], [126.64732873586529, 37.56022941596441], [126.637884208481, 37.55458816885782], [126.63375722686801, 37.552864518044025], [126.61391360288835, 37.54876947547904], [126.60767942914111, 37.54656550654019], [126.60403146756529, 37.545872697306976], [126.57409245971165, 37.536268845946935], [126.56750968430087, 37.53337862326879], [126.56200922115086, 37.52959523184485], [126.53616144336755, 37.51023906500771], [126.52326845291451, 37.50474716059623], [126.50932166309977, 37.500208795015425], [126.50580983229847, 37.49819107861497], [126.50380732780945, 37.49603820136214], [126.49188713892504, 37.479437047767], [126.49096324212177, 37.47571385046592], [126.49151068066706, 37.47168150175533], [126.49135122674694, 37.47002774723129], [126.4904108579898, 37.46802889977879], [126.48877714473817, 37.466542069072474], [126.48724349739979, 37.46590312038917], [126.48528266944264, 37.465709860085624], [126.48365889909219, 37.46606156937949], [126.48220714356674, 37.466869489841365], [126.48105242707733, 37.46806404390355], [126.48029419303269, 37.46954235737232], [126.4794949207355, 37.473967936665744]]]}}]}